{"type":"FeatureCollection","features":[{"type":"Feature","geometry":{"type":"Polygon","coordinates":[[[-96.02,60],[-102,60],[-102,55.8],[-101.95,55.77],[-101.93,55.14],[-101.8,54.39],[-102.04,54.28],[-102.08,54.07],[-102.22,53.97],[-102.31,52.8],[-101.9,52.96],[-101.68,52.99],[-101.5,52.94],[-101.47,53.02],[-101.25,52.99],[-101.23,52.9],[-101.13,52.86],[-100.54,53.07],[-100.11,52.99],[-99.77,52.61],[-99.86,52.28],[-99.59,52.27],[-99.51,52.16],[-99.48,52.04],[-99.57,51.97],[-99.54,51.75],[-99.46,51.81],[-99.32,51.78],[-99.27,51.65],[-99.18,51.61],[-99.18,51.71],[-99.13,51.63],[-99.18,51.81],[-99.13,51.71],[-99.04,51.69],[-98.91,51.33],[-98.91,51.58],[-99.02,51.65],[-98.98,51.71],[-98.84,51.72],[-98.75,51.58],[-98.58,51.62],[-98.52,51.73],[-98.31,51.77],[-98.37,51.8],[-98.31,51.92],[-98.34,52],[-98.07,51.95],[-97.85,52.13],[-97.39,52.34],[-97.06,52.38],[-97.1,52.32],[-96.98,52.22],[-97.13,52.23],[-96.99,52.05],[-96.8,51.96],[-96.89,51.87],[-96.78,51.87],[-96.68,51.78],[-96.82,51.76],[-96.55,51.55],[-96.6,51.49],[-96.26,51.2],[-96.36,51.19],[-96.4,51.15],[-96.33,51.12],[-96.44,51.09],[-96.36,50.67],[-93.82,52.23],[-93.86,52.39],[-93.73,52.83],[-93.77,53.06],[-93.98,53.24],[-94.32,53.36],[-93.68,53.72],[-90.59,55.87],[-90.59,57.23],[-91.15,57.25],[-92.46,56.93],[-92.51,56.93],[-92.22,57.07],[-92.99,56.91],[-92.74,56.95],[-92.49,57.1],[-92.54,57.12],[-92.43,57.35],[-92.71,57.76],[-92.85,58.13],[-93.06,58.36],[-93.2,58.76],[-93.45,58.7],[-93.53,58.77],[-94.2,58.78],[-94.17,58.67],[-94.26,58.6],[-94.27,58.39],[-94.33,58.56],[-94.21,58.67],[-94.27,58.73],[-94.24,58.79],[-94.37,58.7],[-94.46,58.71],[-94.6,58.85],[-94.6,58.94],[-94.74,59.01],[-95.05,59.04],[-95.23,58.95],[-94.99,59.07],[-94.8,59.08],[-94.8,59.27],[-94.74,59.31],[-94.96,59.39],[-94.67,59.35],[-94.74,59.34],[-94.81,59.54],[-94.77,59.56],[-94.82,59.69],[-94.74,59.76],[-94.84,59.91],[-94.81,60],[-96.01,60],[-96.02,60]]]},"properties":{"ENAME":"Treaty 5 (1875)"}},{"type":"Feature","geometry":{"type":"Polygon","coordinates":[[[-113.75,55.25],[-114.07,55.16],[-114.29,54.79],[-114.33,54.53],[-114.66,54.31],[-114.96,54.32],[-115.17,54.17],[-115.43,54.14],[-116.34,54.24],[-117.07,53.94],[-117.19,53.82],[-117.16,53.64],[-117.83,53.34],[-117.85,53.21],[-117.98,53.2],[-118.1,53.04],[-118.04,52.95],[-118.07,52.83],[-117.35,52.51],[-116.67,52.01],[-116.39,52.01],[-116.23,51.74],[-116.09,51.65],[-115.94,51.63],[-115.54,51.73],[-115.43,51.66],[-115.06,51.63],[-114.8,51.76],[-114.65,51.76],[-114.62,51.87],[-114.38,52.04],[-114.29,52],[-114.01,52.06],[-113.9,52.26],[-113.75,52.35],[-113.42,52.23],[-113.28,52.26],[-113.28,52.31],[-112.76,52.36],[-109.91,50.91],[-109.7,50.99],[-108.96,51.03],[-108.83,50.96],[-108.51,50.93],[-108.28,50.68],[-107.86,50.7],[-107.58,50.64],[-107.21,50.78],[-107.05,50.75],[-106.87,51.07],[-106.67,51.09],[-106.83,51.16],[-106.89,51.28],[-105.91,51.53],[-105.18,51.49],[-105.25,51.61],[-105.23,51.73],[-104.87,51.92],[-104.78,52.28],[-104.51,52.64],[-104.25,52.65],[-104.2,52.57],[-103.89,52.6],[-103.77,52.52],[-103.64,52.65],[-103.43,52.62],[-103.34,52.72],[-103.13,52.79],[-102.93,52.74],[-102.76,52.81],[-102.31,52.8],[-102.22,53.95],[-102.39,53.96],[-102.38,54.07],[-102.96,54.05],[-103.04,54.17],[-103.26,54.07],[-103.37,54.12],[-103.38,54.2],[-103.48,54.17],[-103.44,55.11],[-107.47,55.23],[-107.73,55.05],[-107.83,54.86],[-107.77,54.67],[-107.8,54.49],[-108.71,54.42],[-109.77,54.45],[-110.23,54.58],[-110.99,54.54],[-112.25,54.91],[-112.76,54.97],[-113.2,54.88],[-113.32,54.72],[-113.47,54.76],[-113.41,54.94],[-113.5,55.07],[-113.59,55.09],[-113.65,55.24],[-113.74,55.25],[-113.75,55.25]]]},"properties":{"ENAME":"Treaty 6 (1876)"}},{"type":"Feature","geometry":{"type":"Polygon","coordinates":[[[-90.48,57.18],[-90.58,57.22],[-90.59,55.87],[-93.68,53.72],[-94.32,53.36],[-93.98,53.24],[-93.77,53.06],[-93.73,52.83],[-93.86,52.39],[-93.81,52.15],[-93.71,52.05],[-93.48,52],[-92.99,52.15],[-92.18,51.93],[-92.32,51.8],[-92.43,51.51],[-92.92,51.41],[-92.95,51.32],[-92.56,51.23],[-92.13,51.23],[-92.07,51.16],[-92.19,51.04],[-92.09,50.95],[-91.26,50.91],[-91.18,50.87],[-91.3,50.72],[-91.05,50.53],[-90.88,50.48],[-90.51,50.51],[-90.58,50.32],[-90.49,50.07],[-90.59,49.89],[-90.44,49.83],[-90.41,49.74],[-90.52,49.48],[-90.17,49.16],[-90.15,49.31],[-90.27,49.6],[-90.03,49.94],[-89.75,50.13],[-89.48,50.21],[-89.43,50.35],[-89.14,50.38],[-88.97,50.48],[-88.72,50.75],[-88.61,50.78],[-88.26,50.62],[-88.05,50.41],[-87.58,50.39],[-87.28,50.13],[-87.31,50.03],[-87.45,49.93],[-87.43,49.88],[-86.97,49.87],[-87.42,49.43],[-87.41,49.14],[-87.32,49.13],[-87.23,49.21],[-86.99,49.2],[-86.88,49.36],[-86.46,49.67],[-86.36,49.85],[-86.03,49.6],[-85.51,49.57],[-85.45,49.5],[-85.52,49.35],[-85.44,49.21],[-85.12,49.11],[-84.91,48.91],[-84.88,48.84],[-84.98,48.63],[-84.91,48.48],[-84.72,48.46],[-84.55,48.7],[-84.36,48.76],[-84.31,48.69],[-84.48,48.51],[-84.38,48.49],[-84.15,48.61],[-84,48.58],[-83.87,48.44],[-83.9,48.23],[-83.68,48.2],[-83.66,48.02],[-83.42,47.98],[-83.6,47.81],[-83.58,47.74],[-82.85,47.57],[-82.79,47.42],[-81.92,47.53],[-81.41,47.27],[-81.19,47.77],[-80.99,47.86],[-80.93,47.97],[-80.62,48.19],[-79.51,48.35],[-79.51,51.46],[-79.68,51.4],[-79.68,51.34],[-79.73,51.37],[-79.74,51.31],[-79.63,51.25],[-79.8,51.16],[-80.39,51.34],[-80.58,51.72],[-80.69,51.82],[-80.88,51.89],[-81.04,52.05],[-81.4,52.13],[-81.49,52.22],[-81.46,52.28],[-81.57,52.36],[-81.56,52.45],[-81.91,52.67],[-81.97,52.79],[-82.27,52.94],[-82.24,53.21],[-82.12,53.25],[-82.22,53.57],[-82.13,53.83],[-82.27,54.08],[-82.37,54.08],[-82.33,54.11],[-82.46,54.2],[-82.18,54.83],[-82.26,54.9],[-82.26,55.12],[-82.34,55.16],[-82.3,55.06],[-82.38,55.05],[-82.67,55.18],[-82.93,55.1],[-82.89,55.16],[-82.94,55.22],[-83.35,55.19],[-83.69,55.27],[-83.66,55.21],[-83.86,55.29],[-84.74,55.22],[-85.05,55.26],[-85.91,55.65],[-86.24,55.69],[-86.88,55.9],[-87.36,55.95],[-87.47,56.06],[-87.64,56.1],[-87.97,56.46],[-88.45,56.6],[-88.87,56.85],[-89.95,56.99],[-90.47,57.18],[-90.48,57.18]]]},"properties":{"ENAME":"Treaty 9 (1905-1906)"}},{"type":"Feature","geometry":{"type":"Polygon","coordinates":[[[-125.21,69.7],[-125.36,69.69],[-125.5,69.59],[-125.24,69.59],[-125.31,69.54],[-125.14,69.49],[-125.49,69.51],[-125.65,69.42],[-125.1,69.44],[-125.18,69.38],[-125.5,69.41],[-125.35,69.37],[-125.45,69.31],[-125.67,69.39],[-125.91,69.39],[-126.59,69.68],[-126.77,69.81],[-126.78,69.97],[-126.88,69.98],[-127.23,70.29],[-128.04,70.59],[-128.21,70.48],[-128.22,70.36],[-127.9,70.39],[-128.1,70.34],[-128.03,70.27],[-127.54,70.23],[-127.46,70.15],[-127.57,70.22],[-128.35,70.13],[-128.4,70.08],[-128.33,69.95],[-128.97,69.74],[-128.89,69.68],[-128.93,69.66],[-129.15,69.69],[-129.19,69.82],[-128.97,69.84],[-128.89,69.97],[-129.1,69.87],[-130.37,69.69],[-130.75,69.43],[-130.61,69.44],[-130.88,69.33],[-130.95,69.24],[-130.91,69.1],[-131.04,69.13],[-130.92,69.37],[-131.07,69.3],[-130.96,69.41],[-130.98,69.51],[-131.02,69.53],[-130.99,69.46],[-131.05,69.35],[-131.14,69.31],[-131.05,69.49],[-131.16,69.6],[-131.22,69.57],[-131.09,69.5],[-131.1,69.4],[-131.2,69.31],[-131.25,69.31],[-131.14,69.47],[-131.29,69.57],[-131.18,69.4],[-131.38,69.3],[-131.23,69.38],[-131.27,69.49],[-131.26,69.38],[-131.33,69.48],[-131.38,69.35],[-131.38,69.43],[-131.46,69.48],[-131.4,69.42],[-131.55,69.32],[-131.47,69.44],[-131.9,69.42],[-132,69.38],[-131.73,69.38],[-132.11,69.19],[-132.16,69.23],[-132.34,69.17],[-132.35,69.23],[-132.38,69.15],[-132.5,69.1],[-132.43,69.2],[-132.47,69.22],[-132.48,69.14],[-132.58,69.08],[-132.56,69.13],[-132.89,69.06],[-132.87,68.96],[-132.71,68.93],[-132.86,68.92],[-132.75,68.87],[-132.83,68.84],[-132.56,68.9],[-132.43,68.84],[-132.49,68.79],[-133.42,68.83],[-132.95,68.67],[-133.52,68.8],[-133.45,68.85],[-133.52,68.89],[-133.28,68.9],[-133.25,68.98],[-133.35,69],[-133.05,69.04],[-133.09,69.08],[-132.97,69.06],[-132.99,69],[-132.93,68.98],[-132.88,69.1],[-132.93,69.13],[-132.82,69.25],[-132.58,69.27],[-132.54,69.15],[-132.48,69.29],[-132.35,69.26],[-132.38,69.31],[-132.15,69.36],[-132.15,69.44],[-132.06,69.51],[-131.06,69.63],[-130.97,69.62],[-131.05,69.6],[-130.96,69.55],[-130.59,69.7],[-130.57,69.76],[-129.56,70],[-129.58,70.05],[-129.47,70.04],[-129.4,70.11],[-129.64,70.16],[-129.6,70.18],[-129.74,70.26],[-129.87,70.19],[-129.76,70.19],[-129.91,70.07],[-130.05,70.04],[-130.1,70.09],[-130.21,70.03],[-130.19,70.08],[-130.36,70.07],[-130.41,70.16],[-130.74,70.07],[-130.78,70.12],[-130.93,70.06],[-130.98,70.1],[-131.03,70.05],[-130.94,70.03],[-131.06,70.01],[-131.03,69.97],[-131.25,69.82],[-131.25,69.92],[-131.41,69.97],[-131.48,69.95],[-131.45,69.9],[-132.05,69.7],[-132.13,69.71],[-132.04,69.74],[-132.25,69.68],[-132.5,69.73],[-132.35,69.76],[-132.56,69.75],[-132.66,69.67],[-132.41,69.71],[-132.5,69.66],[-132.38,69.66],[-132.98,69.64],[-133.02,69.49],[-132.95,69.44],[-133.03,69.38],[-133.05,69.45],[-133.22,69.38],[-133.69,69.38],[-133.72,69.3],[-133.9,69.33],[-134.19,69.26],[-134.29,69.16],[-134.67,69.02],[-134.34,68.76],[-134.48,68.79],[-134.73,69],[-134.96,68.88],[-135.26,68.93],[-135.57,68.89],[-135.42,68.85],[-135.54,68.83],[-135.29,68.71],[-134.74,68.66],[-134.78,68.65],[-135.27,68.65],[-135.99,68.86],[-136.44,68.9],[-136.45,67.63],[-136.28,67.62],[-136.19,67.55],[-136.23,67.41],[-136.11,67.28],[-136.24,67.16],[-136.16,67],[-133.82,67],[-134.12,66.95],[-133.77,66.8],[-133.86,66.72],[-133.61,66.56],[-133.7,66.52],[-133.64,66.43],[-133.76,66.43],[-133.85,66.33],[-133.6,66.27],[-133.57,66.16],[-133.68,66.08],[-133.59,66.03],[-133.63,65.96],[-133.43,65.93],[-133.03,66.02],[-132.91,66],[-132.99,65.92],[-132.89,65.9],[-132.64,66.02],[-132.33,65.98],[-132.58,65.85],[-132.18,65.59],[-132.78,65.2],[-132.55,65.19],[-132.56,65.09],[-132.34,65.06],[-132.62,64.81],[-132.08,64.7],[-131.88,64.55],[-131.69,64.51],[-131.91,64.39],[-131.87,64.37],[-131.61,64.36],[-131.44,64.4],[-131.45,64.45],[-131.12,64.39],[-131.05,64.33],[-131.08,64.27],[-130.87,64.17],[-130.98,64.13],[-130.88,64.04],[-130.72,64.03],[-130.79,63.98],[-130.54,63.93],[-130.37,63.82],[-130.13,63.87],[-130.14,63.77],[-130.35,63.72],[-130.33,63.67],[-130.12,63.7],[-130.11,63.62],[-129.96,63.61],[-129.99,63.56],[-129.83,63.48],[-129.93,63.44],[-129.94,63.36],[-130.16,63.32],[-130.17,63.26],[-129.89,63.18],[-129.82,63.08],[-129.62,63.05],[-129.78,62.87],[-129.54,62.68],[-129.55,62.56],[-129.43,62.58],[-129.18,62.48],[-129.31,62.41],[-129.25,62.37],[-129.3,62.27],[-129.21,62.21],[-129.28,62.15],[-129.22,62.14],[-130.05,61.95],[-130.57,61.74],[-130.47,61.5],[-130.6,61.36],[-131.53,61.32],[-131.78,61.07],[-131.58,60.82],[-130.76,60.59],[-130.88,60.49],[-131.39,60.56],[-131.44,60.45],[-131.27,60.25],[-130.87,60.16],[-130.64,60],[-116.94,60],[-115.87,60.73],[-115.79,60.85],[-115.3,60.83],[-114.83,60.93],[-114.6,60.91],[-114.26,61.01],[-114.06,60.96],[-113.77,61.01],[-113.63,61.14],[-113.78,61.17],[-113.66,61.2],[-113.72,61.28],[-113.58,61.27],[-113.6,61.35],[-113.3,61.46],[-113.09,61.46],[-113.17,61.48],[-112.95,61.43],[-113.02,61.38],[-112.87,61.41],[-112.9,61.44],[-112.74,61.44],[-112.74,61.38],[-112.64,61.45],[-112.68,61.47],[-112.22,61.61],[-112.19,61.7],[-111.6,61.96],[-111.44,62.07],[-111.77,62.03],[-111.43,62.12],[-111.36,62.17],[-111.61,62.13],[-111.05,62.35],[-111.17,62.34],[-111.11,62.38],[-110.88,62.41],[-110.75,62.36],[-110.78,62.39],[-110.63,62.42],[-110.66,62.36],[-110.57,62.38],[-110.66,62.35],[-110.3,62.36],[-110.22,62.39],[-110.52,62.38],[-109.86,62.56],[-110.16,62.54],[-109.97,62.54],[-110.24,62.45],[-110.21,62.49],[-110.26,62.5],[-110.19,62.52],[-110.7,62.42],[-110.69,62.47],[-110.31,62.54],[-110.66,62.48],[-110.8,62.53],[-110.01,62.56],[-109.68,62.67],[-110.44,62.68],[-110.4,62.76],[-109.76,62.73],[-110.49,62.8],[-110.53,62.77],[-110.45,62.73],[-110.55,62.69],[-110.49,62.66],[-111.3,62.62],[-111.31,62.57],[-111.57,62.49],[-111.68,62.36],[-111.48,62.62],[-110.55,62.78],[-110.77,62.8],[-110.67,62.84],[-109.96,62.83],[-109.31,62.72],[-109.31,62.67],[-109.2,62.71],[-109.29,62.64],[-109.16,62.67],[-109.34,62.58],[-109.29,62.59],[-109,62.69],[-108.9,62.8],[-108.24,62.96],[-107.89,63.19],[-107.94,63.25],[-107.7,63.44],[-107.57,63.42],[-107.41,63.65],[-107.26,63.72],[-107.43,63.79],[-107.56,63.76],[-107.55,63.82],[-107.7,63.89],[-107.59,63.96],[-107.83,63.93],[-107.89,63.96],[-107.86,64.01],[-108.04,64.04],[-108.35,64],[-108.54,64.06],[-108.61,64],[-108.43,64],[-108.48,63.91],[-108.79,64],[-108.9,63.89],[-108.93,63.98],[-108.79,64.03],[-109.23,64.04],[-108.9,64.1],[-108.98,64.19],[-109.45,64.29],[-109.72,64.28],[-109.63,64.36],[-109.87,64.45],[-110.82,64.32],[-110.84,64.36],[-110.68,64.41],[-111.18,64.57],[-111.43,64.53],[-111.74,64.63],[-112.03,64.63],[-112.01,64.72],[-112.35,64.88],[-112.28,64.97],[-112.43,65.13],[-113.7,65.23],[-113.85,65.33],[-114.03,65.35],[-114.04,65.44],[-114.33,65.47],[-114.36,65.55],[-114.31,65.62],[-114.11,65.69],[-114.39,65.8],[-114.33,65.89],[-114.37,66.02],[-114.26,66.16],[-114.62,66.54],[-115.78,66.82],[-116.16,66.81],[-116.26,66.91],[-116.05,67.1],[-116,67.23],[-115.57,67.24],[-115.69,67.38],[-115.57,67.58],[-115.45,67.6],[-115.41,67.7],[-115.06,67.8],[-115.28,67.86],[-115.25,67.91],[-115.73,67.93],[-115.1,68.01],[-115.25,68.02],[-115.17,68.15],[-115.27,68.19],[-114.74,68.19],[-115.05,68.29],[-114.65,68.23],[-114.03,68.24],[-114.06,68.3],[-113.91,68.39],[-113.94,68.43],[-114.1,68.39],[-114.14,68.43],[-114.05,68.44],[-114.12,68.52],[-114.44,68.62],[-114.57,68.74],[-114.81,68.76],[-114.81,68.81],[-114.98,68.87],[-115.89,69.02],[-115.93,69.01],[-115.78,68.96],[-116.35,68.96],[-115.93,68.83],[-115.97,68.81],[-116.39,68.9],[-116.85,68.89],[-116.97,68.96],[-116.99,68.91],[-117.19,68.9],[-117.4,68.97],[-117.87,68.99],[-118.89,69.27],[-120.37,69.43],[-120.94,69.66],[-121.74,69.81],[-123,69.83],[-123.14,69.77],[-123.08,69.71],[-123.13,69.55],[-123.43,69.47],[-123.41,69.4],[-124.33,69.34],[-124.55,69.41],[-124.44,69.41],[-124.46,69.47],[-124.04,69.7],[-124.5,69.73],[-124.39,69.85],[-124.51,69.92],[-124.43,69.91],[-124.5,69.97],[-124.4,69.98],[-124.5,70],[-124.34,70.07],[-124.44,70.11],[-124.39,70.14],[-124.64,70.13],[-124.52,70.2],[-124.73,70.19],[-124.73,70.11],[-124.53,70.1],[-124.58,70.08],[-124.42,70.03],[-124.82,70.07],[-124.99,70.01],[-124.99,70.08],[-125.2,70.02],[-125.22,69.93],[-125.03,70],[-124.64,69.98],[-124.97,69.9],[-125.04,69.8],[-125.17,69.79],[-125.19,69.85],[-125.29,69.8],[-124.8,69.71],[-124.89,69.71],[-124.88,69.66],[-125.05,69.74],[-125.2,69.71],[-125.21,69.7]]]},"properties":{"ENAME":"Treaty 11 (1921)"}},{"type":"Feature","geometry":{"type":"Polygon","coordinates":[[[-96.36,50.81],[-96.6,50.87],[-98.15,50.56],[-98.65,50.59],[-99.92,49.84],[-99.89,49],[-95.84,49],[-95.61,49.3],[-95.72,49.47],[-95.98,49.57],[-95.89,49.64],[-95.88,49.86],[-96.05,50.04],[-95.99,50.44],[-96.34,50.65],[-96.39,50.71],[-96.36,50.8],[-96.36,50.81]]]},"properties":{"ENAME":"Treaty 1 (1871)"}},{"type":"Feature","geometry":{"type":"Polygon","coordinates":[[[-97.06,52.38],[-97.39,52.34],[-97.85,52.13],[-98.07,51.95],[-98.34,52],[-98.31,51.92],[-98.37,51.8],[-98.31,51.77],[-98.52,51.73],[-98.58,51.62],[-98.75,51.58],[-98.84,51.72],[-98.98,51.71],[-99.02,51.65],[-98.91,51.58],[-98.9,51.33],[-98.98,51.42],[-99.04,51.69],[-99.13,51.71],[-99.18,51.81],[-99.13,51.64],[-99.18,51.71],[-99.18,51.61],[-99.27,51.65],[-99.32,51.78],[-99.46,51.81],[-99.54,51.75],[-99.57,51.97],[-99.48,52.06],[-99.59,52.27],[-100.18,52.29],[-101.09,51.7],[-101.29,51.69],[-101.24,51.56],[-101.38,51.48],[-101.25,51.41],[-101.33,51.3],[-101.27,51.32],[-101.21,51.2],[-101.33,51.18],[-101.32,50.95],[-101.5,50.93],[-101.43,50.83],[-101.42,50.59],[-101.31,50.44],[-102.88,49.94],[-102.93,49],[-99.89,49],[-99.92,49.84],[-98.65,50.59],[-98.15,50.56],[-96.6,50.87],[-96.36,50.81],[-96.44,51.09],[-96.33,51.12],[-96.4,51.15],[-96.36,51.19],[-96.26,51.2],[-96.6,51.49],[-96.55,51.55],[-96.82,51.76],[-96.68,51.78],[-96.78,51.87],[-96.89,51.87],[-96.8,51.96],[-96.99,52.05],[-97.13,52.23],[-96.98,52.22],[-97.1,52.32],[-97.06,52.38],[-97.06,52.38]]]},"properties":{"ENAME":"Treaty 2 (1871)"}},{"type":"Feature","geometry":{"type":"Polygon","coordinates":[[[-93.82,52.23],[-96.36,50.67],[-95.99,50.44],[-96.05,50.04],[-95.88,49.86],[-95.89,49.64],[-95.99,49.59],[-95.72,49.47],[-95.61,49.3],[-95.84,49],[-95.15,49],[-95.15,49.38],[-94.91,49.37],[-94.83,49.31],[-94.7,48.78],[-94.24,48.66],[-93.85,48.64],[-93.79,48.53],[-93.52,48.55],[-93.33,48.65],[-92.98,48.64],[-92.67,48.55],[-92.72,48.47],[-92.51,48.44],[-92.4,48.23],[-92.32,48.25],[-92.31,48.36],[-92.09,48.37],[-91.9,48.22],[-91.47,48.06],[-91.25,48.08],[-90.93,48.24],[-90.84,48.24],[-90.77,48.1],[-90.46,48.1],[-90.24,48.26],[-90.25,48.39],[-90.5,48.5],[-90.71,48.71],[-90.36,48.81],[-90.02,48.77],[-89.86,48.86],[-90.51,49.45],[-90.41,49.74],[-90.44,49.83],[-90.59,49.89],[-90.49,50.07],[-90.58,50.32],[-90.51,50.51],[-90.88,50.48],[-91.05,50.53],[-91.3,50.72],[-91.18,50.87],[-91.26,50.91],[-92.09,50.95],[-92.19,51.04],[-92.07,51.16],[-92.13,51.23],[-92.56,51.23],[-92.96,51.33],[-92.92,51.41],[-92.43,51.51],[-92.32,51.8],[-92.19,51.9],[-92.21,51.96],[-92.99,52.15],[-93.61,52.01],[-93.81,52.18],[-93.82,52.23]]]},"properties":{"ENAME":"Treaty 3 (1873)"}},{"type":"Feature","geometry":{"type":"Polygon","coordinates":[[[-101.66,52.98],[-101.9,52.96],[-102.3,52.8],[-102.76,52.81],[-102.93,52.74],[-103.13,52.79],[-103.34,52.72],[-103.43,52.62],[-103.64,52.65],[-103.77,52.52],[-103.89,52.6],[-104.2,52.57],[-104.25,52.65],[-104.51,52.64],[-104.78,52.28],[-104.87,51.92],[-105.23,51.73],[-105.25,51.61],[-105.18,51.49],[-105.91,51.53],[-106.89,51.28],[-106.83,51.16],[-106.67,51.09],[-106.87,51.07],[-107.08,50.74],[-107.21,50.78],[-107.31,50.71],[-107.47,50.71],[-107.53,50.64],[-107.86,50.7],[-108.24,50.67],[-108.43,50.79],[-108.51,50.93],[-108.83,50.96],[-108.96,51.03],[-109.7,50.99],[-109.73,50.94],[-110.02,50.91],[-109.99,50.85],[-110.09,50.81],[-110.07,50.74],[-110.42,50.57],[-110.41,50.42],[-110.6,50.46],[-110.67,50.27],[-110.58,50.2],[-110.59,50.14],[-110.71,50.13],[-110.61,50.01],[-110.67,49.91],[-110.66,49.76],[-110.61,49.74],[-110.61,49],[-102.93,49],[-102.88,49.94],[-101.31,50.44],[-101.42,50.59],[-101.43,50.83],[-101.5,50.91],[-101.47,50.96],[-101.32,50.95],[-101.33,51.18],[-101.21,51.2],[-101.27,51.32],[-101.33,51.3],[-101.25,51.41],[-101.38,51.48],[-101.24,51.56],[-101.31,51.67],[-101.09,51.7],[-100.18,52.29],[-99.86,52.28],[-99.77,52.56],[-99.87,52.78],[-100.19,53.02],[-100.6,53.06],[-101.07,52.86],[-101.2,52.88],[-101.25,52.99],[-101.35,53.02],[-101.47,53.02],[-101.54,52.95],[-101.66,52.98]]]},"properties":{"ENAME":"Treaty 4 (1874)"}},{"type":"Feature","geometry":{"type":"Polygon","coordinates":[[[-105.85,60],[-105.18,59.28],[-105.03,59.3],[-105.1,59.28],[-104.93,59.21],[-105.12,59.14],[-105.55,59.12],[-105.76,59.02],[-105.76,58.96],[-105.62,58.88],[-105.71,58.86],[-105.59,58.86],[-105.72,58.84],[-105.57,58.8],[-105.74,58.68],[-105.81,58.49],[-105.74,58.44],[-105.92,58.22],[-105.91,58.13],[-105.98,58.04],[-106.19,57.99],[-106.2,57.91],[-106.31,57.84],[-106.26,57.68],[-106.3,57.63],[-106.24,57.7],[-106.1,57.66],[-106.17,57.62],[-106.04,57.65],[-106.13,57.57],[-106.21,57.59],[-106.06,57.54],[-106.24,57.41],[-106.22,57.37],[-106.31,57.34],[-106.27,57.42],[-106.44,57.3],[-106.42,57.35],[-106.57,57.31],[-106.49,57.32],[-106.5,57.37],[-106.94,57.21],[-107.38,57.18],[-107.53,56.85],[-107.65,56.81],[-108.51,56.94],[-108.82,56.82],[-108.98,56.6],[-109.1,56.55],[-109.51,56.7],[-109.73,56.7],[-110.07,56.37],[-109.8,55.93],[-109.88,55.78],[-110.21,55.5],[-110.18,55.4],[-110.51,55.29],[-111.14,55.33],[-111.25,55.2],[-111.18,55.15],[-111.17,55.04],[-111.37,54.91],[-111.49,54.69],[-110.89,54.53],[-110.23,54.58],[-109.77,54.45],[-108.5,54.43],[-107.8,54.49],[-107.77,54.67],[-107.83,54.86],[-107.73,55.05],[-107.47,55.23],[-103.44,55.11],[-103.48,54.17],[-103.38,54.2],[-103.37,54.12],[-103.26,54.07],[-103.05,54.17],[-102.96,54.05],[-102.38,54.07],[-102.39,53.96],[-102.22,53.95],[-102.1,54.05],[-102.06,54.26],[-101.8,54.39],[-101.93,55.14],[-101.95,55.77],[-102,55.8],[-102,60],[-105.76,60],[-105.85,60]]]},"properties":{"ENAME":"Treaty 10 (1906)"}},{"type":"Feature","geometry":{"type":"MultiPolygon","coordinates":[[[[-78.74,46.39],[-79.03,46.28],[-79.36,46.37],[-79.49,46.32],[-79.71,46.37],[-79.83,46.3],[-79.99,46.31],[-79.99,46.37],[-80.01,46.3],[-80.21,46.33],[-80.09,46.25],[-80.36,46.25],[-80.37,46.2],[-79.89,46.21],[-80.11,46.18],[-80.05,46.16],[-80.15,46.15],[-80.08,46.12],[-80.17,46.09],[-80.81,46.01],[-80.87,45.94],[-80.79,45.91],[-80.75,45.97],[-80.73,45.86],[-80.62,45.87],[-80.72,45.83],[-80.63,45.77],[-80.66,45.73],[-80.48,45.61],[-80.5,45.56],[-80.42,45.59],[-80.45,45.62],[-80.38,45.59],[-80.4,45.46],[-80.31,45.43],[-80.3,45.36],[-80.06,45.38],[-80.03,45.31],[-80.14,45.24],[-79.99,45.18],[-79.98,45.13],[-80.1,45.12],[-79.9,45.04],[-80,45.04],[-79.93,45.01],[-79.94,44.95],[-79.84,44.96],[-79.75,44.8],[-79.71,44.84],[-79.75,44.88],[-79.68,44.89],[-79.72,44.79],[-79.65,44.75],[-79.73,44.76],[-79.69,44.6],[-79.46,44.51],[-79.58,44.4],[-79.69,44.39],[-79.52,44.41],[-79.51,44.2],[-79.64,44],[-79.53,43.94],[-79.35,43.64],[-79.08,43.81],[-77.58,44.05],[-77.65,44.13],[-77.63,44.24],[-77.83,44.23],[-77.82,44.36],[-77.89,44.4],[-78.31,44.12],[-78.95,44.09],[-79.01,44.39],[-79.13,44.5],[-79.09,44.59],[-76.92,45.21],[-77.17,45.86],[-77.3,45.96],[-77.29,46.02],[-77.67,46.2],[-78.72,46.32],[-78.74,46.38],[-78.74,46.39]]],[[[-80.18,45.23],[-80.05,45.34],[-80.22,45.32],[-80.19,45.23],[-80.18,45.23]]],[[[-80.44,45.5],[-80.41,45.53],[-80.45,45.5],[-80.44,45.5]]]]},"properties":{"ENAME":"Williams Treaties (1923)"}},{"type":"Feature","geometry":{"type":"MultiPolygon","coordinates":[[[[-78.76,46.39],[-78.98,46.53],[-79.46,47.11],[-79.44,47.25],[-79.59,47.42],[-79.51,47.56],[-79.51,48.35],[-79.64,48.36],[-80.62,48.19],[-80.93,47.97],[-80.99,47.86],[-81.19,47.77],[-81.41,47.27],[-81.92,47.53],[-82.76,47.42],[-82.88,47.58],[-83.08,47.6],[-83.41,47.52],[-83.51,47.42],[-83.63,46.98],[-83.91,46.87],[-84.55,46.83],[-84.57,46.68],[-84.49,46.75],[-84.42,46.69],[-84.6,46.55],[-84.48,46.46],[-84.17,46.55],[-84.05,46.5],[-84.13,46.4],[-84.09,46.33],[-83.58,46.24],[-81.73,46.11],[-81.78,46.01],[-81.66,46.12],[-81.55,46.09],[-81.71,46.01],[-81.51,46.03],[-81.67,46.01],[-81.57,46],[-81.69,45.94],[-81.53,46.01],[-81.28,45.95],[-81.16,46],[-81.15,45.92],[-80.77,46.09],[-80.73,46.03],[-80.8,46.02],[-80.75,45.99],[-80.81,46.01],[-80.87,45.93],[-80.79,45.91],[-80.75,45.97],[-80.73,45.86],[-80.62,45.87],[-80.72,45.83],[-80.63,45.77],[-80.66,45.73],[-80.48,45.61],[-80.5,45.56],[-80.42,45.59],[-80.45,45.62],[-80.38,45.59],[-80.4,45.46],[-80.31,45.43],[-80.3,45.36],[-80.06,45.38],[-80.03,45.31],[-80.14,45.24],[-79.99,45.18],[-79.98,45.13],[-80.1,45.12],[-79.9,45.04],[-80,45.04],[-79.93,45.01],[-79.94,44.95],[-79.84,44.96],[-79.75,44.8],[-79.71,44.84],[-79.75,44.88],[-79.68,44.89],[-79.72,44.79],[-79.66,44.74],[-79.93,44.81],[-79.96,44.76],[-79.86,44.7],[-78.97,44.8],[-78.81,44.91],[-78.78,45.06],[-78.89,45.11],[-78.89,45.17],[-78.48,45.37],[-78.68,45.54],[-78.66,45.61],[-78.58,45.6],[-78.64,45.71],[-78.76,45.63],[-79,45.63],[-78.98,45.75],[-79.12,45.76],[-79.08,45.82],[-78.99,45.79],[-78.98,45.88],[-78.88,45.87],[-78.64,46],[-78.77,46.1],[-78.69,46.12],[-78.71,46.17],[-78.58,46.18],[-78.75,46.39],[-78.76,46.39]]],[[[-83.97,46.28],[-84.11,46.3],[-83.93,46.06],[-83.79,46.22],[-83.96,46.28],[-83.97,46.28]]],[[[-81.83,46.06],[-81.95,46.05],[-81.96,46],[-81.78,45.99],[-81.83,46.05],[-81.83,46.06]]],[[[-80.05,45.34],[-80.23,45.28],[-80.17,45.23],[-80.05,45.34],[-80.05,45.34]]],[[[-80.85,46],[-80.98,45.95],[-80.85,46],[-80.85,46]]],[[[-80.43,45.51],[-80.47,45.52],[-80.43,45.5],[-80.43,45.51]]]]},"properties":{"ENAME":"Robinson-Huron Treaty (1850)"}},{"type":"Feature","geometry":{"type":"Polygon","coordinates":[[[-113.75,52.35],[-113.9,52.26],[-114.01,52.06],[-114.29,52],[-114.38,52.04],[-114.62,51.87],[-114.65,51.76],[-114.8,51.76],[-115.06,51.63],[-115.43,51.66],[-115.54,51.73],[-115.94,51.63],[-116.55,51.66],[-116.3,51.46],[-116.26,51.31],[-116.04,51.23],[-116,51.12],[-115.65,51],[-115.57,50.9],[-115.67,50.85],[-115.32,50.72],[-115.21,50.53],[-115.02,50.58],[-114.77,50.35],[-114.74,50.11],[-114.67,50.05],[-114.71,49.93],[-114.65,49.73],[-114.76,49.58],[-114.59,49.55],[-114.59,49.37],[-114.51,49.35],[-114.42,49.21],[-114.21,49.17],[-114.08,49.03],[-114.11,49],[-110.61,49],[-110.61,49.74],[-110.67,49.8],[-110.61,50.01],[-110.71,50.1],[-110.59,50.14],[-110.59,50.22],[-110.67,50.25],[-110.61,50.45],[-110.41,50.42],[-110.41,50.58],[-110.19,50.64],[-110.15,50.73],[-110.07,50.74],[-110.09,50.81],[-109.99,50.85],[-110.02,50.91],[-109.91,50.91],[-112.76,52.36],[-113.28,52.31],[-113.28,52.26],[-113.42,52.23],[-113.75,52.35],[-113.75,52.35]]]},"properties":{"ENAME":"Treaty 7 (1877)"}},{"type":"Feature","geometry":{"type":"Polygon","coordinates":[[[-108.87,62.81],[-109,62.69],[-109.33,62.58],[-109.16,62.67],[-109.29,62.64],[-109.2,62.71],[-109.31,62.67],[-109.31,62.72],[-109.95,62.83],[-110.68,62.84],[-110.77,62.8],[-110.55,62.78],[-111.48,62.62],[-111.68,62.36],[-111.57,62.49],[-111.31,62.57],[-111.3,62.62],[-110.49,62.66],[-110.55,62.69],[-110.45,62.73],[-110.53,62.77],[-110.49,62.8],[-109.76,62.73],[-110.4,62.76],[-110.44,62.68],[-109.68,62.67],[-110.01,62.56],[-110.8,62.53],[-110.66,62.48],[-110.31,62.54],[-110.69,62.47],[-110.7,62.42],[-110.19,62.52],[-110.26,62.5],[-110.21,62.49],[-110.24,62.45],[-109.97,62.54],[-110.16,62.54],[-109.86,62.56],[-110.52,62.38],[-110.22,62.39],[-110.3,62.36],[-110.66,62.35],[-110.57,62.38],[-110.66,62.36],[-110.63,62.42],[-110.78,62.39],[-110.75,62.36],[-110.88,62.41],[-111.11,62.38],[-111.17,62.34],[-111.05,62.35],[-111.61,62.13],[-111.36,62.17],[-111.43,62.12],[-111.77,62.03],[-111.44,62.07],[-111.6,61.96],[-111.86,61.89],[-111.82,61.89],[-112.19,61.7],[-112.22,61.61],[-112.68,61.47],[-112.64,61.45],[-112.74,61.38],[-112.74,61.44],[-113.02,61.38],[-112.95,61.43],[-113.17,61.48],[-113.09,61.46],[-113.27,61.47],[-113.6,61.35],[-113.58,61.27],[-113.73,61.27],[-113.66,61.2],[-113.78,61.17],[-113.63,61.12],[-113.77,61.01],[-114,60.96],[-114.26,61.01],[-114.6,60.91],[-114.83,60.93],[-115.3,60.83],[-115.79,60.85],[-115.91,60.7],[-116.1,60.62],[-116.94,60],[-130.64,60],[-130.44,59.77],[-130.45,59.56],[-130.26,59.3],[-130.36,59.03],[-130.57,58.87],[-130.59,58.79],[-130.38,58.54],[-129.63,58.42],[-129.34,58.25],[-128.55,58.28],[-128.3,58.23],[-127.99,58.42],[-127.54,58.37],[-127.37,58.17],[-127.42,58.04],[-127.37,57.94],[-127.08,57.83],[-126.85,57.82],[-126.72,57.7],[-126.84,57.56],[-127.18,57.55],[-127.39,57.4],[-127.48,57.22],[-127.63,57.1],[-127.45,56.81],[-127.23,56.7],[-126.5,56.77],[-126.01,56.64],[-126.15,56.36],[-126.5,56.33],[-126.59,56.28],[-126.58,56.22],[-126.14,56.03],[-125.8,55.73],[-125.68,55.53],[-125.48,55.43],[-125.17,55.13],[-124.82,55.04],[-123.92,55.04],[-123.4,54.73],[-123.04,54.63],[-122.79,54.66],[-122.71,54.4],[-122.53,54.31],[-122.32,54.33],[-122.32,54.46],[-122.16,54.55],[-121.64,54.43],[-121.42,54.45],[-121.17,54.59],[-120.78,54.52],[-120.53,54.39],[-120.5,54.21],[-120.41,54.13],[-120.04,54.11],[-120,53.81],[-119.72,53.62],[-119.91,53.62],[-119.9,53.53],[-119.71,53.38],[-119.39,53.36],[-119.26,53.18],[-119.06,53.12],[-119,53.23],[-118.92,53.22],[-118.74,53.11],[-118.79,53.04],[-118.65,53.02],[-118.61,52.89],[-118.5,52.91],[-118.4,52.85],[-118.42,52.77],[-118.3,52.68],[-118.36,52.61],[-118.2,52.48],[-118.23,52.4],[-118.07,52.42],[-117.98,52.5],[-117.75,52.37],[-117.85,52.3],[-117.81,52.22],[-117.68,52.21],[-117.62,52.14],[-117.36,52.21],[-117.32,52.07],[-117.04,51.9],[-116.93,51.72],[-116.83,51.7],[-116.67,51.81],[-116.56,51.66],[-116.1,51.66],[-116.23,51.74],[-116.39,52.01],[-116.67,52.01],[-117.35,52.51],[-118.03,52.78],[-118.09,53.06],[-117.97,53.21],[-117.85,53.21],[-117.83,53.34],[-117.16,53.64],[-117.19,53.82],[-116.73,54.12],[-116.27,54.25],[-116,54.17],[-115.25,54.15],[-115.01,54.24],[-114.96,54.32],[-114.57,54.35],[-114.53,54.44],[-114.33,54.53],[-114.29,54.79],[-114.07,55.16],[-113.75,55.25],[-113.65,55.24],[-113.59,55.09],[-113.5,55.07],[-113.41,54.94],[-113.47,54.76],[-113.32,54.72],[-113.2,54.88],[-112.76,54.97],[-112.25,54.91],[-111.49,54.69],[-111.37,54.91],[-111.17,55.04],[-111.18,55.15],[-111.25,55.2],[-111.14,55.33],[-110.51,55.29],[-110.18,55.4],[-110.21,55.5],[-109.88,55.78],[-109.8,55.93],[-110.07,56.37],[-109.73,56.7],[-109.51,56.7],[-109.1,56.55],[-108.98,56.6],[-108.82,56.82],[-108.51,56.94],[-107.65,56.81],[-107.53,56.85],[-107.38,57.18],[-106.94,57.21],[-106.5,57.37],[-106.49,57.32],[-106.57,57.31],[-106.42,57.35],[-106.44,57.3],[-106.27,57.42],[-106.31,57.34],[-106.22,57.37],[-106.24,57.41],[-106.06,57.54],[-106.21,57.59],[-106.13,57.57],[-106.04,57.65],[-106.17,57.62],[-106.1,57.66],[-106.24,57.7],[-106.3,57.63],[-106.26,57.68],[-106.31,57.84],[-106.2,57.91],[-106.19,57.99],[-106,58.03],[-105.91,58.13],[-105.92,58.22],[-105.74,58.44],[-105.81,58.49],[-105.74,58.68],[-105.57,58.8],[-105.72,58.84],[-105.59,58.86],[-105.71,58.86],[-105.62,58.88],[-105.75,58.95],[-105.76,59.02],[-105.55,59.12],[-105.12,59.14],[-104.93,59.21],[-105.1,59.28],[-105.03,59.3],[-105.18,59.28],[-105.91,60.06],[-108.82,62.77],[-108.87,62.81]]]},"properties":{"ENAME":"Treaty 8 (1899)"}},{"type":"Feature","geometry":{"type":"MultiPolygon","coordinates":[[[[-81.64,45.26],[-81.73,45.22],[-81.59,45.19],[-81.44,44.97],[-81.38,44.99],[-81.28,44.7],[-81.3,44.6],[-81.44,44.43],[-81.6,44.35],[-81.66,44.17],[-81.77,44.08],[-81.71,43.38],[-81.84,43.26],[-82.02,43.22],[-82.18,43.05],[-82.42,43],[-82.51,42.62],[-82.66,42.55],[-82.42,42.49],[-82.46,42.32],[-83.06,42.32],[-83.11,42.05],[-82.93,41.98],[-82.63,42.04],[-82.51,41.92],[-82.48,42.07],[-82.34,42.16],[-82.09,42.26],[-81.9,42.26],[-81.93,42.29],[-81.86,42.34],[-81.85,42.26],[-81.8,42.4],[-81.29,42.67],[-80.08,42.54],[-80.04,42.55],[-80.45,42.63],[-80.33,42.66],[-80.21,42.79],[-79.45,42.88],[-79.09,42.84],[-78.91,42.9],[-79.08,43.08],[-79.06,43.26],[-79.36,43.18],[-79.8,43.3],[-79.58,43.56],[-79.35,43.64],[-79.53,43.94],[-79.64,44],[-79.51,44.2],[-79.52,44.41],[-79.69,44.38],[-79.46,44.51],[-79.69,44.6],[-79.73,44.76],[-79.89,44.76],[-79.88,44.82],[-79.96,44.78],[-79.93,44.87],[-80.12,44.81],[-80.12,44.74],[-79.98,44.68],[-79.99,44.56],[-80.09,44.48],[-80.55,44.6],[-80.64,44.73],[-80.83,44.69],[-80.93,44.58],[-80.89,44.79],[-80.99,44.82],[-81.14,44.75],[-80.97,44.98],[-81.05,44.97],[-81.08,44.89],[-81.16,44.91],[-81.12,44.95],[-81.26,44.99],[-81.27,45.09],[-81.35,45.15],[-81.29,45.24],[-81.64,45.25],[-81.64,45.26]]],[[[-76.78,45.78],[-76.77,45.85],[-76.86,45.9],[-76.93,45.89],[-76.95,45.78],[-77.17,45.86],[-76.92,45.21],[-79.09,44.59],[-79.13,44.5],[-79.01,44.39],[-78.95,44.09],[-78.31,44.12],[-77.89,44.4],[-77.82,44.36],[-77.83,44.23],[-77.63,44.24],[-77.65,44.13],[-77.59,44.06],[-77.57,44.11],[-76.95,44.23],[-77.06,44.11],[-76.88,44.16],[-77.08,44.08],[-76.96,44.06],[-76.69,44.22],[-76.54,44.2],[-76.47,44.27],[-76.43,44.23],[-75.94,44.37],[-75.29,44.87],[-74.96,45.03],[-74.57,45.06],[-74.34,45.2],[-74.47,45.31],[-74.38,45.56],[-74.63,45.64],[-75.26,45.58],[-75.85,45.37],[-76.12,45.53],[-76.34,45.45],[-76.64,45.55],[-76.7,45.72],[-76.78,45.77],[-76.78,45.78]]],[[[-82.8,45.99],[-83.1,45.91],[-83.18,45.96],[-83.23,45.87],[-82.52,45.75],[-82.08,45.56],[-81.76,45.7],[-81.9,45.57],[-81.92,45.61],[-82.01,45.56],[-81.87,45.52],[-81.79,45.54],[-81.58,45.8],[-81.72,45.8],[-81.68,45.91],[-81.81,45.73],[-81.82,45.86],[-81.92,45.89],[-81.91,45.98],[-82.06,45.96],[-82.16,45.83],[-82.21,45.94],[-82.28,45.91],[-82.32,45.99],[-82.59,45.9],[-82.5,45.84],[-82.54,45.78],[-82.67,45.87],[-82.75,45.83],[-82.85,45.91],[-82.8,45.98],[-82.8,45.99]]],[[[-77.08,44.12],[-77.07,44.17],[-77.34,44.08],[-77.3,44.13],[-77.39,44.14],[-77.59,44.06],[-77.51,44],[-77.59,44],[-77.49,43.93],[-77.24,43.96],[-77.26,43.91],[-77.32,43.94],[-77.15,43.84],[-76.86,43.93],[-77.03,43.91],[-76.99,43.98],[-77.03,43.99],[-76.9,44.02],[-76.84,44.11],[-77.14,44.02],[-77.08,44.12],[-77.08,44.12]]],[[[-83.35,45.99],[-83.43,45.98],[-83.49,45.88],[-83.28,45.89],[-83.27,45.96],[-83.35,45.98],[-83.35,45.99]]],[[[-76.2,44.22],[-76.4,44.23],[-76.51,44.14],[-76.43,44.1],[-76.34,44.18],[-76.4,44.2],[-76.2,44.22],[-76.2,44.22]]],[[[-82.6,45.96],[-82.74,45.92],[-82.6,45.9],[-82.59,45.96],[-82.6,45.96]]],[[[-76.63,44.17],[-76.81,44.12],[-76.69,44.1],[-76.64,44.16],[-76.63,44.17]]],[[[-80.22,44.86],[-80.25,44.89],[-80.17,44.78],[-80.16,44.86],[-80.21,44.86],[-80.22,44.86]]],[[[-82.68,41.72],[-82.71,41.82],[-82.7,41.72],[-82.68,41.72]]],[[[-76.23,44.3],[-76.35,44.24],[-76.22,44.3],[-76.23,44.3]]],[[[-80.88,44.84],[-80.89,44.85],[-80.89,44.85],[-80.89,44.86],[-80.89,44.87],[-80.9,44.87],[-80.91,44.86],[-80.91,44.86],[-80.92,44.85],[-80.92,44.84],[-80.92,44.83],[-80.91,44.83],[-80.9,44.84],[-80.9,44.84],[-80.89,44.84],[-80.88,44.84]]],[[[-80.96,44.88],[-80.96,44.89],[-80.96,44.89],[-80.96,44.9],[-80.95,44.9],[-80.96,44.91],[-80.96,44.91],[-80.97,44.91],[-80.98,44.91],[-80.98,44.9],[-80.98,44.89],[-80.98,44.89],[-80.97,44.88],[-80.97,44.88],[-80.97,44.87],[-80.96,44.88]]]]},"properties":{"ENAME":"Southern Ontario Treaties (1764-1862)"}},{"type":"Feature","geometry":{"type":"MultiPolygon","coordinates":[[[[-86.35,48.66],[-86.13,48.23],[-85.94,48.02],[-85.63,47.92],[-84.85,47.95],[-84.94,47.84],[-84.88,47.79],[-85.01,47.71],[-84.98,47.66],[-85.04,47.58],[-84.62,47.34],[-84.59,47.28],[-84.72,47.18],[-84.71,47.1],[-84.8,46.99],[-84.62,46.89],[-84.47,46.94],[-84.38,46.86],[-84.08,46.85],[-83.74,46.92],[-83.57,47.06],[-83.48,47.46],[-83.08,47.6],[-83.6,47.76],[-83.42,47.98],[-83.66,48.02],[-83.68,48.2],[-83.9,48.23],[-83.87,48.44],[-84,48.58],[-84.15,48.61],[-84.38,48.49],[-84.48,48.51],[-84.31,48.69],[-84.36,48.76],[-84.55,48.7],[-84.72,48.46],[-84.91,48.48],[-84.98,48.59],[-84.88,48.84],[-84.91,48.91],[-85.12,49.11],[-85.44,49.21],[-85.52,49.35],[-85.45,49.5],[-85.51,49.57],[-86.03,49.6],[-86.36,49.85],[-86.46,49.67],[-86.88,49.36],[-86.99,49.2],[-87.23,49.21],[-87.32,49.13],[-87.41,49.14],[-87.42,49.43],[-86.97,49.87],[-87.43,49.88],[-87.45,49.93],[-87.28,50.12],[-87.54,50.36],[-88.08,50.42],[-88.21,50.59],[-88.61,50.78],[-88.78,50.71],[-88.89,50.54],[-89.12,50.39],[-89.37,50.38],[-89.46,50.32],[-89.47,50.22],[-89.92,50.04],[-90.25,49.64],[-90.27,49.56],[-90.15,49.31],[-90.16,49.1],[-89.92,48.93],[-89.88,48.82],[-90.02,48.77],[-90.36,48.81],[-90.71,48.71],[-90.5,48.5],[-90.21,48.34],[-90.47,48.1],[-90.09,48.11],[-89.87,47.98],[-89.77,48.03],[-89.54,48.01],[-89.31,48.11],[-89.18,48.32],[-89.24,48.37],[-89.21,48.43],[-89.11,48.49],[-88.76,48.58],[-88.92,48.3],[-88.73,48.35],[-88.61,48.61],[-88.53,48.63],[-88.54,48.76],[-88.46,48.85],[-88.31,48.81],[-88.29,48.73],[-88.55,48.54],[-88.59,48.49],[-88.55,48.41],[-88.43,48.56],[-88.29,48.57],[-88.32,48.65],[-88.18,48.59],[-88.08,48.79],[-88.23,48.86],[-88.25,49.02],[-88.16,48.95],[-88.02,49.02],[-88.04,48.97],[-87.93,48.93],[-87.64,48.85],[-87.55,48.88],[-87.54,48.82],[-87.42,48.84],[-87.27,48.76],[-86.99,48.82],[-86.88,48.75],[-86.72,48.8],[-86.62,48.79],[-86.63,48.73],[-86.43,48.77],[-86.35,48.67],[-86.35,48.66]]],[[[-88.02,48.69],[-87.95,48.76],[-87.79,48.75],[-87.75,48.83],[-87.99,48.86],[-88.08,48.8],[-88.03,48.69],[-88.02,48.69]]],[[[-85.79,47.69],[-85.62,47.74],[-85.76,47.79],[-85.95,47.74],[-85.8,47.69],[-85.79,47.69]]],[[[-87.67,48.74],[-87.57,48.75],[-87.72,48.84],[-87.73,48.75],[-87.68,48.74],[-87.67,48.74]]],[[[-89.1,48.21],[-89.02,48.25],[-89.16,48.25],[-89.11,48.21],[-89.1,48.21]]]]},"properties":{"ENAME":"Robinson-Superior Treaty (1850)"}},{"type":"Feature","geometry":{"type":"MultiPolygon","coordinates":[[[[-123.48,48.38],[-123.31,48.39],[-123.26,48.45],[-123.35,48.52],[-123.41,48.71],[-123.51,48.69],[-123.5,48.57],[-123.59,48.42],[-123.92,48.49],[-124.02,48.4],[-123.59,48.3],[-123.5,48.37],[-123.48,48.38]],[[-123.36,48.47],[-123.36,48.47],[-123.36,48.47],[-123.36,48.47]]],[[[-123.93,49.12],[-123.9,49.18],[-123.98,49.17],[-123.94,49.12],[-123.93,49.12]]],[[[-127.41,50.66],[-127.37,50.72],[-127.46,50.71],[-127.42,50.66],[-127.41,50.66]]],[[[-127.5,50.7],[-127.46,50.76],[-127.55,50.75],[-127.51,50.7],[-127.5,50.7]]]]},"properties":{"ENAME":"Douglas Treaties (1850-1854)"}},{"type":"Feature","geometry":{"type":"MultiPolygon","coordinates":[[[[-64.57,49.1],[-65.33,49.26],[-66.29,49.19],[-67.54,48.86],[-68.94,48.3],[-69.5,47.96],[-69.64,47.74],[-70.02,47.49],[-70.05,47.38],[-70.21,47.3],[-70.48,47.02],[-71,46.82],[-71.18,46.82],[-71.3,46.72],[-71.22,46.53],[-70.92,46.35],[-70.63,46.06],[-70.6,45.79],[-70.8,45.61],[-70.92,45.59],[-70.9,45.45],[-70.63,45.38],[-70.72,45.51],[-70.56,45.67],[-70.38,45.73],[-70.42,45.8],[-70.26,45.9],[-70.24,45.95],[-70.32,45.96],[-70.24,46.14],[-70.29,46.19],[-70.19,46.35],[-70.06,46.41],[-70,46.7],[-69.17,47.46],[-69.04,47.43],[-69.05,47.26],[-68.9,47.18],[-68.23,47.36],[-67.79,47.07],[-67.75,45.92],[-67.82,45.69],[-67.42,45.57],[-67.42,45.5],[-67.5,45.49],[-67.42,45.38],[-67.49,45.28],[-67.35,45.13],[-67.27,45.19],[-67.04,45.07],[-67.05,45.16],[-66.96,45.18],[-66.85,45.12],[-66.92,45.06],[-66.78,45.04],[-66.49,45.15],[-66.46,45.06],[-66.22,45.14],[-66.06,45.28],[-65.9,45.19],[-64.95,45.6],[-64.78,45.59],[-64.57,45.82],[-64.56,45.98],[-64.5,45.81],[-64.56,45.72],[-64.33,45.87],[-64.24,45.82],[-64.33,45.75],[-64.29,45.81],[-64.37,45.8],[-64.45,45.68],[-64.85,45.48],[-64.79,45.47],[-64.91,45.43],[-64.94,45.33],[-64.85,45.36],[-64.77,45.29],[-64.57,45.41],[-63.34,45.37],[-63.47,45.34],[-63.48,45.28],[-63.53,45.34],[-63.81,45.31],[-64.36,45.09],[-64.42,45.15],[-64.35,45.17],[-64.39,45.2],[-64.33,45.29],[-64.5,45.33],[-64.4,45.28],[-64.95,45.11],[-66.11,44.5],[-66.2,44.38],[-65.98,44.56],[-65.85,44.57],[-66.13,44.33],[-66.21,44.11],[-66.15,43.99],[-66.17,43.86],[-66.15,43.81],[-66.12,43.85],[-66.12,43.74],[-66.09,43.78],[-66.01,43.68],[-65.96,43.74],[-66,43.85],[-65.97,43.76],[-65.94,43.84],[-65.87,43.75],[-65.86,43.81],[-65.73,43.49],[-65.65,43.48],[-65.58,43.57],[-65.47,43.45],[-65.46,43.55],[-65.39,43.48],[-65.46,43.6],[-65.34,43.54],[-65.34,43.77],[-65.26,43.66],[-65.24,43.8],[-65.18,43.7],[-65.14,43.74],[-65.13,43.65],[-65.09,43.75],[-65.07,43.69],[-64.95,43.75],[-64.97,43.87],[-64.91,43.79],[-64.91,43.88],[-64.83,43.81],[-64.78,43.86],[-64.82,43.95],[-64.66,43.99],[-64.69,44.06],[-64.55,44.07],[-64.62,44.16],[-64.52,44.13],[-64.35,44.29],[-64.24,44.27],[-64.34,44.37],[-64.22,44.37],[-64.38,44.45],[-64.3,44.48],[-64.31,44.57],[-64.22,44.53],[-64.18,44.59],[-64.08,44.47],[-64,44.52],[-64.07,44.63],[-63.89,44.69],[-63.95,44.52],[-63.84,44.49],[-63.79,44.54],[-63.82,44.48],[-63.76,44.53],[-63.76,44.47],[-63.64,44.47],[-63.65,44.43],[-63.52,44.51],[-63.66,44.72],[-63.45,44.59],[-63.41,44.65],[-63.28,44.63],[-63.25,44.74],[-63.19,44.68],[-63.15,44.78],[-63.14,44.69],[-63.13,44.79],[-63.05,44.67],[-63.01,44.73],[-63.06,44.78],[-63,44.77],[-63.01,44.7],[-62.8,44.71],[-62.88,44.82],[-62.66,44.77],[-62.62,44.85],[-62.54,44.79],[-62.57,44.87],[-62.49,44.89],[-62.54,44.92],[-62.45,44.82],[-62.42,44.9],[-62.35,44.88],[-62.26,44.97],[-62.18,44.93],[-62,44.98],[-62.1,45.01],[-61.95,45.01],[-61.98,45.07],[-61.9,45.02],[-61.84,45.11],[-61.66,45.09],[-61.8,45.25],[-61.68,45.16],[-61.67,45.2],[-61.47,45.15],[-61.31,45.19],[-61.39,45.2],[-61.31,45.26],[-61.17,45.21],[-61.17,45.3],[-61.12,45.28],[-61.15,45.21],[-61.04,45.24],[-61.06,45.3],[-60.98,45.27],[-60.98,45.34],[-61.46,45.35],[-61.6,45.45],[-61.48,45.39],[-61.23,45.48],[-61.47,45.69],[-61.59,45.68],[-61.62,45.61],[-61.77,45.65],[-61.8,45.6],[-61.89,45.69],[-61.91,45.61],[-61.96,45.62],[-61.89,45.67],[-61.9,45.88],[-62.51,45.59],[-62.48,45.65],[-62.69,45.68],[-62.64,45.72],[-62.78,45.76],[-62.7,45.77],[-63.11,45.81],[-63.08,45.76],[-63.32,45.73],[-63.38,45.76],[-63.23,45.8],[-63.43,45.81],[-63.47,45.88],[-63.67,45.85],[-63.92,45.99],[-64.11,46.02],[-63.78,46.1],[-63.84,46.15],[-64.14,46.14],[-64.27,46.24],[-64.56,46.21],[-64.58,46.28],[-64.52,46.33],[-64.63,46.34],[-64.62,46.42],[-64.73,46.49],[-64.7,46.53],[-64.61,46.46],[-64.73,46.59],[-64.72,46.69],[-64.81,46.66],[-64.91,46.83],[-65,46.83],[-64.91,46.88],[-64.87,46.77],[-64.92,46.89],[-64.81,46.98],[-64.8,47.07],[-65.03,47.09],[-65.17,47.03],[-65.37,47.09],[-64.98,47.28],[-64.91,47.4],[-64.92,47.34],[-64.85,47.59],[-64.68,47.71],[-64.74,47.77],[-64.78,47.69],[-64.88,47.75],[-64.79,47.76],[-64.84,47.81],[-65.1,47.76],[-64.97,47.82],[-65.17,47.82],[-65.67,47.6],[-65.62,47.65],[-65.7,47.68],[-65.71,47.78],[-65.83,47.9],[-66.29,47.98],[-66.37,48.07],[-66.87,48],[-66.54,48.06],[-66.48,48.13],[-66.11,48.09],[-65.9,48.21],[-65.8,48.12],[-65.45,48.01],[-65.24,48.01],[-64.95,48.18],[-64.78,48.2],[-64.69,48.3],[-64.73,48.34],[-64.3,48.41],[-64.32,48.45],[-64.2,48.53],[-64.32,48.61],[-64.15,48.62],[-64.39,48.83],[-64.57,48.81],[-64.47,48.83],[-64.57,48.89],[-64.15,48.75],[-64.24,48.9],[-64.56,49.1],[-64.57,49.1]]],[[[-65.65,43.41],[-65.64,43.41],[-65.65,43.42],[-65.65,43.41],[-65.65,43.4],[-65.63,43.4],[-65.62,43.4],[-65.62,43.39],[-65.62,43.39],[-65.62,43.4],[-65.62,43.4],[-65.62,43.4],[-65.62,43.4],[-65.63,43.4],[-65.65,43.4],[-65.65,43.41]]],[[[-65.74,43.46],[-65.75,43.48],[-65.76,43.48],[-65.76,43.48],[-65.75,43.47],[-65.75,43.46],[-65.74,43.46],[-65.74,43.46]]],[[[-65.71,43.47],[-65.7,43.47],[-65.71,43.48],[-65.71,43.48],[-65.72,43.47],[-65.71,43.47],[-65.71,43.47]]],[[[-65.8,43.54],[-65.8,43.55],[-65.8,43.55],[-65.81,43.55],[-65.81,43.54],[-65.8,43.54],[-65.8,43.54]]],[[[-66.05,43.64],[-66.05,43.65],[-66.06,43.65],[-66.05,43.64],[-66.05,43.64]]],[[[-66.04,43.64],[-66.04,43.65],[-66.04,43.65],[-66.04,43.64],[-66.04,43.64]]],[[[-65.56,43.49],[-65.62,43.51],[-65.63,43.41],[-65.56,43.49],[-65.56,43.49]]],[[[-66.03,43.66],[-66.03,43.67],[-66.04,43.67],[-66.04,43.67],[-66.04,43.66],[-66.04,43.66],[-66.03,43.66]]],[[[-66.01,43.66],[-66.01,43.67],[-66.02,43.66],[-66.02,43.67],[-66.02,43.66],[-66.03,43.66],[-66.03,43.65],[-66.02,43.65],[-66.02,43.65],[-66.02,43.64],[-66.02,43.64],[-66.02,43.64],[-66.01,43.64],[-66.01,43.65],[-66,43.64],[-66,43.66],[-66.01,43.66]]],[[[-66.04,43.72],[-66.05,43.73],[-66.05,43.72],[-66.05,43.72],[-66.03,43.71],[-66.04,43.72]]],[[[-66.09,43.74],[-66.09,43.74],[-66.09,43.74],[-66.09,43.75],[-66.1,43.75],[-66.1,43.74],[-66.09,43.74]]],[[[-66.09,43.76],[-66.09,43.76],[-66.1,43.76],[-66.1,43.76],[-66.1,43.75],[-66.09,43.75],[-66.09,43.76]]],[[[-65.44,43.51],[-65.44,43.52],[-65.44,43.52],[-65.44,43.53],[-65.44,43.53],[-65.45,43.52],[-65.45,43.51],[-65.44,43.51],[-65.44,43.51]]],[[[-66.08,43.76],[-66.08,43.77],[-66.09,43.77],[-66.09,43.77],[-66.08,43.76]]],[[[-65.36,43.52],[-65.38,43.53],[-65.38,43.53],[-65.37,43.51],[-65.36,43.52],[-65.36,43.51],[-65.35,43.51],[-65.35,43.51],[-65.35,43.5],[-65.34,43.51],[-65.35,43.52],[-65.36,43.52],[-65.36,43.52],[-65.36,43.52]]],[[[-65.94,43.73],[-65.94,43.73],[-65.94,43.72],[-65.93,43.72],[-65.93,43.72],[-65.92,43.7],[-65.92,43.7],[-65.92,43.71],[-65.93,43.72],[-65.93,43.73],[-65.94,43.73],[-65.94,43.73]]],[[[-66.16,43.81],[-66.15,43.82],[-66.16,43.82],[-66.17,43.8],[-66.16,43.8],[-66.16,43.8],[-66.15,43.8],[-66.16,43.79],[-66.15,43.79],[-66.15,43.81],[-66.15,43.81],[-66.15,43.81],[-66.16,43.81],[-66.16,43.81]]],[[[-65.89,43.73],[-65.89,43.73],[-65.89,43.73],[-65.9,43.73],[-65.89,43.73]]],[[[-65.88,43.72],[-65.87,43.73],[-65.88,43.73],[-65.88,43.73],[-65.88,43.73],[-65.89,43.72],[-65.88,43.72],[-65.88,43.71],[-65.88,43.72]]],[[[-65.94,43.74],[-65.94,43.75],[-65.95,43.76],[-65.95,43.75],[-65.94,43.74],[-65.94,43.74]]],[[[-65.92,43.79],[-65.91,43.71],[-65.9,43.77],[-65.92,43.79]]],[[[-65.28,43.65],[-65.31,43.66],[-65.31,43.66],[-65.31,43.66],[-65.31,43.66],[-65.3,43.65],[-65.31,43.64],[-65.3,43.63],[-65.3,43.63],[-65.28,43.62],[-65.27,43.62],[-65.26,43.63],[-65.28,43.65]]],[[[-66.34,44.26],[-66.35,44.26],[-66.35,44.26],[-66.34,44.28],[-66.34,44.29],[-66.35,44.29],[-66.35,44.29],[-66.35,44.29],[-66.37,44.27],[-66.38,44.27],[-66.39,44.25],[-66.39,44.25],[-66.4,44.24],[-66.39,44.24],[-66.38,44.24],[-66.37,44.24],[-66.37,44.23],[-66.37,44.23],[-66.34,44.26]]],[[[-66.3,44.27],[-66.22,44.41],[-66.32,44.25],[-66.3,44.27]]],[[[-66.75,44.57],[-66.76,44.59],[-66.76,44.59],[-66.76,44.57],[-66.75,44.57]]],[[[-66.81,44.61],[-66.81,44.61],[-66.81,44.61],[-66.82,44.61],[-66.83,44.61],[-66.82,44.61],[-66.81,44.61]]],[[[-66.82,44.62],[-66.82,44.62],[-66.81,44.62],[-66.82,44.64],[-66.82,44.64],[-66.82,44.63],[-66.83,44.62],[-66.84,44.62],[-66.84,44.61],[-66.84,44.61],[-66.82,44.62]]],[[[-64.76,43.89],[-64.75,43.9],[-64.76,43.91],[-64.78,43.92],[-64.78,43.91],[-64.78,43.91],[-64.78,43.91],[-64.77,43.9],[-64.77,43.89],[-64.76,43.89],[-64.76,43.89]]],[[[-66.71,44.62],[-66.69,44.62],[-66.69,44.63],[-66.7,44.63],[-66.69,44.64],[-66.69,44.65],[-66.71,44.64],[-66.73,44.62],[-66.72,44.62],[-66.71,44.62],[-66.71,44.62]]],[[[-66.71,44.66],[-66.71,44.66],[-66.73,44.65],[-66.73,44.64],[-66.71,44.66]]],[[[-66.74,44.66],[-66.73,44.66],[-66.73,44.66],[-66.73,44.67],[-66.72,44.68],[-66.73,44.69],[-66.74,44.68],[-66.74,44.68],[-66.75,44.67],[-66.74,44.66],[-66.74,44.65],[-66.74,44.66]]],[[[-66.72,44.73],[-66.72,44.74],[-66.73,44.74],[-66.72,44.73],[-66.72,44.73],[-66.72,44.73]]],[[[-66.76,44.78],[-66.83,44.77],[-66.91,44.6],[-66.76,44.66],[-66.76,44.78],[-66.76,44.78]]],[[[-64.63,44.04],[-64.63,44.05],[-64.63,44.04],[-64.63,44.04],[-64.63,44.03],[-64.63,44.04]]],[[[-66.97,44.92],[-66.96,44.93],[-66.97,44.94],[-66.98,44.93],[-66.97,44.92],[-66.97,44.92]]],[[[-66.92,44.94],[-66.98,44.87],[-66.93,44.83],[-66.92,44.94],[-66.92,44.94]]],[[[-64.52,44.12],[-64.53,44.12],[-64.53,44.13],[-64.52,44.13],[-64.52,44.13],[-64.53,44.14],[-64.53,44.14],[-64.54,44.13],[-64.53,44.12],[-64.52,44.12],[-64.52,44.12]]],[[[-66.74,44.94],[-66.74,44.95],[-66.74,44.95],[-66.75,44.95],[-66.74,44.94],[-66.74,44.94]]],[[[-66.95,45],[-67.02,44.96],[-66.98,44.93],[-66.95,44.99],[-66.95,45]]],[[[-67.05,45.06],[-67.05,45.07],[-67.07,45.07],[-67.05,45.05],[-67.05,45.06]]],[[[-66.93,45.06],[-66.93,45.06],[-66.94,45.05],[-66.94,45.05],[-66.94,45.04],[-66.93,45.04],[-66.93,45.04],[-66.92,45.04],[-66.92,45.05],[-66.93,45.05],[-66.93,45.06]]],[[[-66.71,44.97],[-66.7,44.98],[-66.7,44.99],[-66.7,44.99],[-66.72,44.97],[-66.72,44.97],[-66.71,44.97],[-66.71,44.97]]],[[[-67.04,45.1],[-67.04,45.1],[-67.04,45.11],[-67.05,45.12],[-67.05,45.11],[-67.05,45.1],[-67.04,45.1],[-67.04,45.1]]],[[[-66.86,45.03],[-66.85,45.07],[-66.86,45.03],[-66.86,45.03]]],[[[-64.34,44.19],[-64.4,44.19],[-64.35,44.18],[-64.34,44.19]]],[[[-64.37,44.24],[-64.38,44.23],[-64.37,44.22],[-64.36,44.22],[-64.34,44.22],[-64.34,44.22],[-64.35,44.22],[-64.35,44.23],[-64.37,44.23],[-64.37,44.24]]],[[[-64.36,44.24],[-64.37,44.25],[-64.37,44.25],[-64.36,44.24],[-64.36,44.24]]],[[[-64.32,44.23],[-64.36,44.24],[-64.32,44.23],[-64.32,44.23]]],[[[-64.27,44.23],[-64.27,44.23],[-64.27,44.24],[-64.28,44.24],[-64.28,44.23],[-64.27,44.23]]],[[[-64.32,44.34],[-64.32,44.35],[-64.33,44.36],[-64.34,44.36],[-64.33,44.35],[-64.33,44.34],[-64.33,44.34],[-64.32,44.34]]],[[[-64.18,44.31],[-64.17,44.31],[-64.18,44.32],[-64.19,44.32],[-64.19,44.32],[-64.2,44.32],[-64.2,44.31],[-64.19,44.31],[-64.19,44.31],[-64.18,44.31],[-64.18,44.31]]],[[[-64.21,44.35],[-64.21,44.35],[-64.2,44.35],[-64.21,44.35],[-64.22,44.35],[-64.22,44.35],[-64.22,44.35],[-64.21,44.35]]],[[[-64.32,44.41],[-64.32,44.42],[-64.32,44.42],[-64.32,44.42],[-64.33,44.42],[-64.34,44.42],[-64.33,44.41],[-64.32,44.41],[-64.32,44.41]]],[[[-64.24,44.39],[-64.28,44.39],[-64.24,44.39],[-64.24,44.39]]],[[[-64.3,44.42],[-64.3,44.43],[-64.31,44.43],[-64.31,44.42],[-64.31,44.42],[-64.3,44.42]]],[[[-64.3,44.44],[-64.3,44.45],[-64.3,44.45],[-64.31,44.45],[-64.3,44.44],[-64.3,44.44]]],[[[-64.31,44.45],[-64.31,44.46],[-64.31,44.46],[-64.32,44.45],[-64.31,44.45],[-64.31,44.45]]],[[[-64.29,44.46],[-64.29,44.46],[-64.3,44.47],[-64.3,44.46],[-64.29,44.46],[-64.29,44.46]]],[[[-64.23,44.45],[-64.23,44.46],[-64.24,44.46],[-64.24,44.46],[-64.24,44.45],[-64.23,44.45]]],[[[-64.29,44.47],[-64.28,44.47],[-64.28,44.47],[-64.28,44.48],[-64.29,44.48],[-64.29,44.48],[-64.29,44.47]]],[[[-64.13,44.42],[-64.12,44.43],[-64.13,44.43],[-64.14,44.42],[-64.13,44.42]]],[[[-64.3,44.51],[-64.29,44.51],[-64.29,44.52],[-64.3,44.52],[-64.3,44.51],[-64.3,44.51],[-64.3,44.51]]],[[[-64.09,44.44],[-64.08,44.44],[-64.08,44.44],[-64.08,44.44],[-64.1,44.44],[-64.09,44.43],[-64.09,44.44]]],[[[-64.17,44.45],[-64.17,44.45],[-64.16,44.45],[-64.15,44.46],[-64.15,44.46],[-64.15,44.47],[-64.16,44.47],[-64.17,44.47],[-64.18,44.46],[-64.18,44.45],[-64.18,44.44],[-64.17,44.44],[-64.16,44.44],[-64.16,44.44],[-64.16,44.44],[-64.17,44.45],[-64.17,44.45]]],[[[-64.14,44.47],[-64.13,44.47],[-64.13,44.47],[-64.13,44.48],[-64.14,44.47],[-64.14,44.47]]],[[[-64.24,44.53],[-64.24,44.54],[-64.25,44.53],[-64.24,44.53],[-64.24,44.53]]],[[[-64.23,44.52],[-64.22,44.53],[-64.23,44.53],[-64.23,44.53],[-64.23,44.52]]],[[[-64.2,44.56],[-64.2,44.56],[-64.21,44.56],[-64.21,44.56],[-64.2,44.55],[-64.2,44.56]]],[[[-64.03,44.49],[-64.03,44.5],[-64.04,44.5],[-64.04,44.5],[-64.03,44.49]]],[[[-63.87,44.48],[-63.86,44.48],[-63.87,44.48],[-63.87,44.48],[-63.87,44.48]]],[[[-63.77,44.44],[-63.76,44.45],[-63.76,44.45],[-63.77,44.45],[-63.77,44.44],[-63.77,44.44]]],[[[-63.72,44.44],[-63.72,44.44],[-63.72,44.44],[-63.73,44.44],[-63.73,44.44],[-63.73,44.44],[-63.72,44.44]]],[[[-63.74,44.45],[-63.74,44.46],[-63.74,44.46],[-63.74,44.47],[-63.74,44.46],[-63.75,44.46],[-63.75,44.46],[-63.75,44.45],[-63.74,44.45]]],[[[-63.66,44.45],[-63.66,44.46],[-63.67,44.45],[-63.66,44.45],[-63.66,44.45]]],[[[-63.56,44.44],[-63.56,44.44],[-63.57,44.44],[-63.57,44.44],[-63.56,44.44]]],[[[-63.49,44.6],[-63.49,44.6],[-63.5,44.61],[-63.5,44.6],[-63.49,44.6]]],[[[-63.51,44.61],[-63.51,44.61],[-63.51,44.62],[-63.53,44.62],[-63.53,44.63],[-63.53,44.63],[-63.54,44.62],[-63.54,44.62],[-63.54,44.62],[-63.54,44.61],[-63.53,44.61],[-63.53,44.61],[-63.53,44.6],[-63.51,44.59],[-63.5,44.58],[-63.5,44.59],[-63.5,44.6],[-63.51,44.6],[-63.52,44.6],[-63.51,44.61]]],[[[-65,45.25],[-64.99,45.25],[-64.99,45.26],[-65.01,45.25],[-65.02,45.25],[-65.01,45.25],[-65,45.25]]],[[[-63.27,44.64],[-63.27,44.65],[-63.27,44.65],[-63.27,44.64],[-63.27,44.64]]],[[[-63.24,44.71],[-63.24,44.71],[-63.25,44.72],[-63.24,44.71],[-63.24,44.71]]],[[[-63.1,44.71],[-63.09,44.71],[-63.09,44.72],[-63.1,44.72],[-63.11,44.71],[-63.11,44.72],[-63.12,44.72],[-63.12,44.72],[-63.12,44.71],[-63.13,44.71],[-63.13,44.7],[-63.12,44.69],[-63.11,44.7],[-63.1,44.71]]],[[[-62.97,44.69],[-62.97,44.69],[-62.97,44.69],[-62.98,44.69],[-62.98,44.69],[-62.97,44.69]]],[[[-62.9,44.68],[-62.9,44.68],[-62.91,44.68],[-62.91,44.68],[-62.9,44.67],[-62.9,44.68]]],[[[-62.85,44.69],[-62.84,44.69],[-62.85,44.69],[-62.86,44.69],[-62.85,44.69]]],[[[-62.84,44.69],[-62.84,44.69],[-62.83,44.69],[-62.83,44.69],[-62.83,44.7],[-62.84,44.69],[-62.85,44.69],[-62.84,44.69]]],[[[-62.79,44.74],[-62.79,44.74],[-62.8,44.74],[-62.8,44.74],[-62.8,44.73],[-62.79,44.74]]],[[[-62.76,44.72],[-62.76,44.73],[-62.75,44.74],[-62.76,44.75],[-62.77,44.75],[-62.78,44.75],[-62.78,44.73],[-62.76,44.72]]],[[[-62.71,44.75],[-62.72,44.76],[-62.72,44.76],[-62.72,44.77],[-62.73,44.77],[-62.73,44.77],[-62.73,44.76],[-62.73,44.76],[-62.73,44.76],[-62.74,44.75],[-62.73,44.75],[-62.73,44.75],[-62.72,44.75],[-62.72,44.75],[-62.71,44.75],[-62.71,44.75]]],[[[-62.66,44.76],[-62.65,44.76],[-62.65,44.76],[-62.66,44.76],[-62.67,44.76],[-62.67,44.76],[-62.66,44.76]]],[[[-62.69,44.78],[-62.68,44.78],[-62.69,44.79],[-62.7,44.79],[-62.7,44.78],[-62.71,44.78],[-62.7,44.78],[-62.69,44.77],[-62.69,44.77],[-62.69,44.76],[-62.69,44.76],[-62.68,44.76],[-62.68,44.76],[-62.67,44.76],[-62.67,44.76],[-62.68,44.77],[-62.69,44.77],[-62.69,44.78]]],[[[-62.61,44.78],[-62.6,44.79],[-62.6,44.79],[-62.61,44.79],[-62.62,44.79],[-62.62,44.79],[-62.62,44.78],[-62.62,44.78],[-62.61,44.78],[-62.61,44.78],[-62.61,44.78]]],[[[-62.6,44.8],[-62.61,44.81],[-62.61,44.81],[-62.62,44.81],[-62.62,44.81],[-62.63,44.8],[-62.64,44.8],[-62.64,44.8],[-62.63,44.79],[-62.63,44.78],[-62.62,44.79],[-62.63,44.79],[-62.62,44.8],[-62.62,44.8],[-62.61,44.8],[-62.61,44.8],[-62.6,44.8],[-62.6,44.8]]],[[[-64.09,45.38],[-64.07,45.39],[-64.09,45.39],[-64.09,45.39],[-64.09,45.38],[-64.09,45.38]]],[[[-62.54,44.81],[-62.54,44.81],[-62.55,44.81],[-62.54,44.8],[-62.54,44.81]]],[[[-62.53,44.84],[-62.54,44.85],[-62.55,44.84],[-62.54,44.83],[-62.53,44.84]]],[[[-62.53,44.83],[-62.51,44.83],[-62.51,44.84],[-62.52,44.84],[-62.53,44.83],[-62.54,44.83],[-62.54,44.83],[-62.53,44.83]]],[[[-62.42,44.84],[-62.42,44.85],[-62.43,44.85],[-62.43,44.84],[-62.42,44.84]]],[[[-62.38,44.84],[-62.37,44.85],[-62.37,44.85],[-62.38,44.86],[-62.37,44.85],[-62.38,44.84],[-62.38,44.84]]],[[[-62.32,44.9],[-62.32,44.9],[-62.32,44.91],[-62.32,44.91],[-62.33,44.91],[-62.32,44.9],[-62.32,44.9],[-62.32,44.9]]],[[[-62.29,44.9],[-62.3,44.91],[-62.3,44.9],[-62.29,44.9]]],[[[-62.26,44.91],[-62.26,44.92],[-62.26,44.92],[-62.27,44.91],[-62.26,44.91]]],[[[-62.14,44.88],[-62.12,44.88],[-62.12,44.88],[-62.13,44.89],[-62.14,44.88],[-62.14,44.88]]],[[[-62.15,44.91],[-62.17,44.91],[-62.17,44.91],[-62.15,44.91]]],[[[-62.06,44.93],[-62.06,44.94],[-62.06,44.94],[-62.06,44.95],[-62.07,44.94],[-62.09,44.94],[-62.09,44.94],[-62.1,44.94],[-62.1,44.94],[-62.1,44.93],[-62.09,44.93],[-62.1,44.93],[-62.09,44.93],[-62.09,44.93],[-62.08,44.94],[-62.07,44.94],[-62.08,44.94],[-62.07,44.93],[-62.07,44.94],[-62.06,44.93]]],[[[-62.07,44.95],[-62.07,44.95],[-62.08,44.96],[-62.09,44.96],[-62.08,44.95],[-62.08,44.95],[-62.07,44.95]]],[[[-62.04,44.93],[-62.03,44.93],[-62.02,44.94],[-62.03,44.95],[-62.04,44.95],[-62.04,44.95],[-62.05,44.94],[-62.04,44.94],[-62.05,44.93],[-62.05,44.93],[-62.04,44.93]]],[[[-62.05,44.96],[-62.05,44.97],[-62.06,44.97],[-62.06,44.96],[-62.05,44.96],[-62.05,44.96]]],[[[-60.08,43.94],[-59.82,43.95],[-59.72,44.02],[-59.86,43.95],[-60.13,43.96],[-60.08,43.94]]],[[[-61.93,44.99],[-61.97,45],[-61.93,44.99],[-61.93,44.99]]],[[[-61.99,45.01],[-61.97,45.01],[-61.97,45.01],[-61.97,45.01],[-61.97,45.01],[-61.98,45.02],[-61.99,45.02],[-61.99,45.01],[-61.99,45.01],[-61.99,45.01]]],[[[-61.75,45.08],[-61.76,45.09],[-61.77,45.09],[-61.77,45.08],[-61.77,45.08],[-61.76,45.08],[-61.75,45.08]]],[[[-61.71,45.09],[-61.71,45.09],[-61.71,45.09],[-61.71,45.09],[-61.71,45.08],[-61.71,45.09]]],[[[-61.54,45.1],[-61.54,45.1],[-61.55,45.1],[-61.54,45.1],[-61.54,45.1]]],[[[-63.42,45.84],[-63.42,45.84],[-63.43,45.85],[-63.43,45.85],[-63.42,45.84]]],[[[-61.6,45.13],[-61.6,45.14],[-61.62,45.14],[-61.61,45.13],[-61.6,45.13]]],[[[-63.39,45.84],[-63.38,45.84],[-63.39,45.85],[-63.41,45.85],[-63.41,45.84],[-63.4,45.85],[-63.4,45.84],[-63.4,45.84],[-63.41,45.84],[-63.4,45.84],[-63.39,45.84]]],[[[-61.58,45.14],[-61.58,45.14],[-61.58,45.12],[-61.57,45.12],[-61.58,45.11],[-61.58,45.11],[-61.57,45.11],[-61.57,45.12],[-61.56,45.12],[-61.56,45.12],[-61.56,45.13],[-61.57,45.13],[-61.58,45.14]]],[[[-64.54,46.25],[-64.53,46.26],[-64.54,46.27],[-64.54,46.28],[-64.55,46.27],[-64.55,46.26],[-64.54,46.25],[-64.54,46.25]]],[[[-63.25,45.81],[-63.24,45.82],[-63.25,45.82],[-63.26,45.81],[-63.26,45.81],[-63.25,45.81]]],[[[-61.53,45.15],[-61.52,45.15],[-61.54,45.16],[-61.55,45.15],[-61.54,45.15],[-61.53,45.15]]],[[[-64.59,46.37],[-64.59,46.37],[-64.6,46.39],[-64.6,46.4],[-64.62,46.4],[-64.61,46.39],[-64.6,46.39],[-64.6,46.37],[-64.6,46.37],[-64.59,46.37]]],[[[-62.5,45.62],[-62.5,45.62],[-62.5,45.62],[-62.5,45.62]]],[[[-62.49,45.63],[-62.5,45.63],[-62.5,45.63],[-62.51,45.63],[-62.5,45.63],[-62.5,45.63],[-62.49,45.63]]],[[[-62.48,45.63],[-62.48,45.63],[-62.49,45.63],[-62.49,45.62],[-62.48,45.63]]],[[[-62.48,45.63],[-62.47,45.64],[-62.47,45.63],[-62.45,45.64],[-62.45,45.64],[-62.47,45.64],[-62.48,45.63],[-62.48,45.63]]],[[[-63.81,46.15],[-63.83,46.17],[-63.84,46.16],[-63.84,46.16],[-63.83,46.16],[-63.82,46.15],[-63.81,46.15]]],[[[-62.66,45.74],[-62.67,45.75],[-62.68,45.75],[-62.68,45.74],[-62.66,45.73],[-62.66,45.74]]],[[[-62.4,45.66],[-62.4,45.66],[-62.39,45.67],[-62.4,45.67],[-62.41,45.66],[-62.4,45.66]]],[[[-61.27,45.21],[-61.27,45.22],[-61.28,45.22],[-61.28,45.21],[-61.27,45.21]]],[[[-61.24,45.22],[-61.25,45.23],[-61.25,45.23],[-61.25,45.22],[-61.24,45.22]]],[[[-62.41,45.66],[-62.36,45.68],[-62.46,45.65],[-62.41,45.66],[-62.41,45.66]]],[[[-61.24,45.22],[-61.24,45.22],[-61.24,45.23],[-61.24,45.23],[-61.24,45.22],[-61.24,45.22]]],[[[-61.13,45.2],[-61.13,45.2],[-61.13,45.2],[-61.14,45.2],[-61.14,45.2],[-61.13,45.2]]],[[[-61.22,45.23],[-61.22,45.24],[-61.23,45.23],[-61.22,45.23],[-61.22,45.23]]],[[[-61.22,45.24],[-61.22,45.25],[-61.23,45.24],[-61.22,45.24],[-61.22,45.24]]],[[[-61.11,45.2],[-61.11,45.2],[-61.11,45.2],[-61.11,45.2]]],[[[-61.2,45.24],[-61.2,45.25],[-61.2,45.24],[-61.2,45.24]]],[[[-61.17,45.23],[-61.16,45.24],[-61.16,45.24],[-61.17,45.24],[-61.16,45.24],[-61.17,45.23],[-61.17,45.23],[-61.17,45.23]]],[[[-61.09,45.22],[-61.08,45.22],[-61.08,45.22],[-61.09,45.22],[-61.09,45.22],[-61.09,45.22]]],[[[-61.15,45.25],[-61.15,45.25],[-61.15,45.25],[-61.16,45.26],[-61.16,45.25],[-61.16,45.25],[-61.15,45.25],[-61.15,45.25]]],[[[-61.05,45.23],[-61.04,45.23],[-61.05,45.23],[-61.07,45.23],[-61.07,45.23],[-61.06,45.23],[-61.06,45.22],[-61.05,45.23]]],[[[-62.6,45.8],[-62.51,45.83],[-62.6,45.8],[-62.6,45.8]]],[[[-61.04,45.24],[-61.04,45.25],[-61.05,45.25],[-61.05,45.24],[-61.04,45.24]]],[[[-64.8,46.7],[-64.79,46.7],[-64.79,46.71],[-64.81,46.71],[-64.81,46.7],[-64.8,46.7]]],[[[-64.79,46.69],[-64.77,46.69],[-64.76,46.69],[-64.76,46.69],[-64.76,46.7],[-64.78,46.7],[-64.8,46.7],[-64.8,46.69],[-64.79,46.69]]],[[[-63.19,46.12],[-63.18,46.13],[-63.18,46.13],[-63.2,46.12],[-63.21,46.12],[-63.2,46.12],[-63.19,46.12]]],[[[-64.12,46.44],[-64.11,46.47],[-64.12,46.48],[-64.12,46.45],[-64.12,46.44],[-64.12,46.44]]],[[[-64.8,46.71],[-64.84,46.75],[-64.8,46.71],[-64.8,46.71]]],[[[-60.98,45.26],[-60.99,45.27],[-61,45.28],[-61,45.27],[-61,45.26],[-60.99,45.26],[-60.99,45.26],[-60.99,45.26],[-60.98,45.25],[-60.98,45.26],[-60.98,45.26]]],[[[-64.85,46.75],[-64.86,46.77],[-64.86,46.77],[-64.86,46.77],[-64.85,46.75],[-64.85,46.75]]],[[[-60.96,45.28],[-60.96,45.28],[-60.97,45.28],[-60.97,45.28],[-60.96,45.28]]],[[[-63.06,46.14],[-63.08,46.14],[-63.07,46.13],[-63.06,46.14]]],[[[-61.09,45.36],[-61.09,45.36],[-61.1,45.36],[-61.1,45.35],[-61.09,45.36]]],[[[-60.96,45.29],[-60.94,45.3],[-60.95,45.31],[-60.96,45.31],[-60.96,45.31],[-60.97,45.31],[-60.97,45.29],[-60.96,45.3],[-60.96,45.29],[-60.96,45.29],[-60.95,45.29],[-60.96,45.29],[-60.96,45.29]]],[[[-61,45.35],[-61.01,45.35],[-61.02,45.35],[-61.03,45.35],[-61.03,45.35],[-61.03,45.35],[-61.03,45.34],[-61.02,45.34],[-61,45.34],[-61,45.35],[-61,45.35],[-61,45.35]]],[[[-61.75,45.66],[-61.75,45.66],[-61.75,45.66],[-61.75,45.65],[-61.75,45.66]]],[[[-60.96,45.34],[-60.97,45.35],[-60.98,45.35],[-60.99,45.35],[-60.99,45.35],[-60.99,45.34],[-60.97,45.34],[-60.97,45.34],[-60.97,45.34],[-60.96,45.34],[-60.96,45.34],[-60.96,45.34]]],[[[-60.93,45.32],[-60.92,45.33],[-60.93,45.33],[-60.93,45.32],[-60.93,45.32]]],[[[-60.97,45.35],[-60.97,45.35],[-60.98,45.36],[-60.98,45.35],[-60.97,45.35]]],[[[-60.95,45.35],[-60.96,45.36],[-60.96,45.35],[-60.96,45.35],[-60.95,45.35]]],[[[-61.67,45.64],[-61.63,45.65],[-61.68,45.64],[-61.67,45.64]]],[[[-63.78,46.52],[-63.79,46.53],[-63.79,46.53],[-63.8,46.52],[-63.79,46.52],[-63.78,46.52]]],[[[-61.08,45.51],[-61.08,45.51],[-61.09,45.51],[-61.1,45.51],[-61.1,45.51],[-61.11,45.51],[-61.09,45.5],[-61.08,45.51]]],[[[-61.22,45.56],[-61.2,45.56],[-61.2,45.56],[-61.23,45.56],[-61.22,45.56]]],[[[-61.04,45.5],[-61.04,45.5],[-61.05,45.5],[-61.05,45.5],[-61.06,45.5],[-61.06,45.49],[-61.04,45.49],[-61.04,45.5]]],[[[-61.09,45.52],[-61.1,45.52],[-61.11,45.52],[-61.11,45.53],[-61.11,45.53],[-61.13,45.53],[-61.14,45.53],[-61.14,45.53],[-61.13,45.53],[-61.12,45.53],[-61.12,45.53],[-61.11,45.52],[-61.09,45.52]]],[[[-61.15,45.55],[-61.19,45.51],[-61.15,45.55],[-61.15,45.55]]],[[[-61.21,45.58],[-61.22,45.58],[-61.23,45.58],[-61.24,45.58],[-61.23,45.57],[-61.23,45.57],[-61.21,45.57],[-61.21,45.57],[-61.21,45.57],[-61.22,45.57],[-61.21,45.58]]],[[[-61.11,45.53],[-61.11,45.53],[-61.11,45.53],[-61.12,45.54],[-61.13,45.54],[-61.11,45.53]]],[[[-61.22,45.58],[-61.22,45.58],[-61.23,45.58],[-61.22,45.58]]],[[[-63.82,46.59],[-63.82,46.59],[-63.84,46.59],[-63.83,46.59],[-63.82,46.59]]],[[[-61.15,45.55],[-61.15,45.56],[-61.15,45.56],[-61.16,45.55],[-61.15,45.55]]],[[[-61.19,45.57],[-61.19,45.58],[-61.2,45.58],[-61.19,45.57],[-61.19,45.57]]],[[[-61.13,45.55],[-61.13,45.56],[-61.14,45.56],[-61.14,45.55],[-61.13,45.55]]],[[[-61.2,45.59],[-61.18,45.59],[-61.2,45.59],[-61.2,45.59],[-61.2,45.59],[-61.21,45.59],[-61.21,45.59],[-61.22,45.58],[-61.22,45.58],[-61.21,45.58],[-61.2,45.58],[-61.2,45.59]]],[[[-63.84,46.61],[-63.88,46.63],[-63.84,46.61],[-63.84,46.61]]],[[[-60.9,45.48],[-60.9,45.48],[-60.9,45.48],[-60.9,45.48],[-60.9,45.48]]],[[[-63.82,46.62],[-63.88,46.65],[-63.73,46.58],[-63.82,46.62]]],[[[-60.93,45.48],[-60.92,45.52],[-60.95,45.48],[-60.93,45.48]]],[[[-65.12,47.09],[-65.08,47.1],[-65.12,47.08],[-65.12,47.09]]],[[[-63.88,46.66],[-63.96,46.7],[-63.88,46.65],[-63.88,46.66]]],[[[-64.96,47.08],[-64.96,47.08],[-64.98,47.09],[-64.98,47.08],[-64.97,47.08],[-64.96,47.08],[-64.96,47.08],[-64.96,47.08]]],[[[-61,45.59],[-61,45.59],[-60.99,45.59],[-60.99,45.59],[-61,45.59],[-61,45.59],[-61,45.59]]],[[[-65.02,47.12],[-65.03,47.13],[-65.04,47.13],[-65.05,47.13],[-65.05,47.13],[-65.03,47.13],[-65.03,47.12],[-65.04,47.12],[-65.04,47.12],[-65.02,47.12],[-65.02,47.11],[-65.01,47.1],[-64.99,47.09],[-64.98,47.09],[-64.98,47.09],[-65.02,47.12]]],[[[-61,45.6],[-61,45.6],[-61,45.6],[-61.02,45.6],[-61.02,45.6],[-61.02,45.6],[-61,45.6]]],[[[-64.04,46.79],[-64.05,46.79],[-64.06,46.79],[-64.06,46.79],[-64.05,46.78],[-64.04,46.79]]],[[[-60.97,45.59],[-60.97,45.6],[-60.96,45.59],[-60.96,45.6],[-60.98,45.59],[-60.97,45.59]]],[[[-60.99,45.62],[-61,45.62],[-61,45.62],[-61,45.62],[-61,45.62],[-61,45.61],[-60.99,45.62]]],[[[-60.91,45.58],[-60.91,45.58],[-60.92,45.59],[-60.92,45.58],[-60.92,45.58],[-60.91,45.58]]],[[[-64.02,46.75],[-64.04,46.8],[-64.02,46.75],[-64.02,46.75]]],[[[-60.97,45.61],[-60.97,45.61],[-60.97,45.61],[-60.98,45.61],[-60.98,45.61],[-60.97,45.61]]],[[[-60.9,45.58],[-61.14,45.56],[-61,45.47],[-60.9,45.58],[-60.9,45.58]]],[[[-62.41,46.19],[-62.41,46.19],[-62.41,46.19],[-62.42,46.2],[-62.44,46.2],[-62.44,46.2],[-62.44,46.19],[-62.42,46.19],[-62.41,46.18],[-62.4,46.18],[-62.41,46.19]]],[[[-65.04,47.16],[-65.04,47.2],[-65.05,47.16],[-65.04,47.16]]],[[[-60.81,45.59],[-60.8,45.6],[-60.81,45.6],[-60.82,45.6],[-60.82,45.59],[-60.81,45.59]]],[[[-65.09,47.23],[-65.08,47.23],[-65.09,47.23],[-65.1,47.23],[-65.09,47.23]]],[[[-61.1,45.75],[-61.1,45.76],[-61.1,45.75],[-61.09,45.74],[-61.09,45.75],[-61.1,45.75],[-61.1,45.75]]],[[[-60.65,45.58],[-60.65,45.58],[-60.65,45.58],[-60.65,45.58],[-60.65,45.58]]],[[[-61.08,45.75],[-61.08,45.76],[-61.08,45.77],[-61.08,45.77],[-61.09,45.76],[-61.09,45.75],[-61.08,45.75]]],[[[-61.59,45.97],[-61.59,45.99],[-61.6,45.99],[-61.6,45.98],[-61.6,45.97],[-61.59,45.97]]],[[[-61.06,45.79],[-61.05,45.79],[-61.05,45.8],[-61.06,45.79],[-61.06,45.79],[-61.06,45.79]]],[[[-65.01,47.24],[-64.96,47.29],[-65.02,47.23],[-65.01,47.24]]],[[[-61.56,46.01],[-61.57,46.01],[-61.56,46.01],[-61.55,46.01],[-61.56,46.02],[-61.58,46.02],[-61.58,46.02],[-61.57,46.01],[-61.58,46.01],[-61.58,46],[-61.57,46],[-61.56,46],[-61.56,45.99],[-61.56,45.99],[-61.56,46.01]]],[[[-61.02,45.81],[-61.01,45.81],[-61.01,45.81],[-61.02,45.82],[-61.02,45.82],[-61.03,45.82],[-61.02,45.81]]],[[[-60.78,45.72],[-60.78,45.72],[-60.79,45.72],[-60.78,45.71],[-60.78,45.71],[-60.78,45.71],[-60.78,45.72],[-60.79,45.72],[-60.78,45.72]]],[[[-60.99,45.82],[-61,45.82],[-61,45.82],[-60.99,45.82],[-60.99,45.82]]],[[[-60.49,45.62],[-60.49,45.62],[-60.49,45.62],[-60.49,45.62],[-60.5,45.62],[-60.49,45.62]]],[[[-64.96,47.29],[-64.94,47.33],[-64.96,47.29],[-64.96,47.29]]],[[[-60.77,45.74],[-60.76,45.74],[-60.75,45.75],[-60.76,45.75],[-60.78,45.75],[-60.78,45.75],[-60.78,45.74],[-60.77,45.74]]],[[[-60.76,45.77],[-60.76,45.77],[-60.76,45.77],[-60.76,45.77],[-60.77,45.77],[-60.77,45.77],[-60.77,45.76],[-60.76,45.77]]],[[[-61.42,46.06],[-61.42,46.07],[-61.43,46.07],[-61.43,46.06],[-61.43,46.06],[-61.42,46.06]]],[[[-61.11,45.96],[-61.12,45.96],[-61.12,45.95],[-61.12,45.95],[-61.11,45.95],[-61.11,45.96]]],[[[-61.07,45.95],[-61.06,45.95],[-61.05,45.95],[-61.06,45.95],[-61.08,45.95],[-61.08,45.95],[-61.07,45.95]]],[[[-62,46.45],[-62.59,46.47],[-63.05,46.41],[-63.66,46.56],[-63.75,46.5],[-63.69,46.43],[-63.86,46.45],[-63.81,46.48],[-63.88,46.56],[-63.84,46.58],[-63.92,46.58],[-63.88,46.64],[-64.1,46.77],[-63.98,46.88],[-64,47.06],[-64.42,46.7],[-64.39,46.61],[-64.19,46.63],[-64.12,46.58],[-64.07,46.64],[-64.14,46.4],[-63.78,46.39],[-63.73,46.35],[-63.82,46.37],[-63.82,46.32],[-63.72,46.25],[-63.26,46.13],[-62.98,46.2],[-62.93,46.18],[-62.97,46.13],[-62.88,46.13],[-63.05,46.05],[-62.89,46.08],[-62.94,46.04],[-62.76,45.95],[-62.46,46.01],[-62.56,46.03],[-62.48,46.06],[-62.47,46.15],[-62.56,46.14],[-62.52,46.21],[-62.41,46.21],[-62.43,46.27],[-62.36,46.28],[-62.41,46.31],[-62.34,46.3],[-62.37,46.35],[-62.22,46.34],[-62.01,46.43],[-62,46.45]]],[[[-66.18,47.99],[-66.19,48],[-66.2,48],[-66.19,47.99],[-66.18,47.99]]],[[[-66.14,47.98],[-66.12,47.98],[-66.12,47.98],[-66.15,48],[-66.17,48],[-66.15,47.99],[-66.14,47.98],[-66.14,47.98]]],[[[-60.11,45.77],[-60.11,45.77],[-60.11,45.77],[-60.12,45.77],[-60.11,45.76],[-60.11,45.77]]],[[[-61.27,46.35],[-61.26,46.35],[-61.26,46.36],[-61.25,46.37],[-61.26,46.37],[-61.27,46.36],[-61.27,46.35],[-61.27,46.35]]],[[[-64.9,47.81],[-64.9,47.82],[-64.9,47.82],[-64.87,47.82],[-64.87,47.82],[-64.88,47.82],[-64.9,47.82],[-64.91,47.82],[-64.91,47.82],[-64.9,47.81],[-64.9,47.81]]],[[[-64.75,47.81],[-64.76,47.82],[-64.78,47.82],[-64.8,47.82],[-64.8,47.82],[-64.8,47.82],[-64.79,47.82],[-64.79,47.81],[-64.8,47.8],[-64.79,47.79],[-64.79,47.79],[-64.78,47.78],[-64.79,47.78],[-64.78,47.77],[-64.77,47.77],[-64.77,47.78],[-64.77,47.78],[-64.77,47.78],[-64.76,47.78],[-64.75,47.78],[-64.75,47.78],[-64.76,47.79],[-64.76,47.8],[-64.77,47.8],[-64.75,47.81]]],[[[-60.42,46.16],[-60.41,46.2],[-60.42,46.16],[-60.42,46.16]]],[[[-59.68,46.02],[-59.68,46.03],[-59.69,46.03],[-59.69,46.02],[-59.68,46.02]]],[[[-59.7,46],[-59.8,46.01],[-59.71,45.99],[-59.7,46]]],[[[-64.51,47.85],[-64.5,47.91],[-64.54,47.86],[-64.68,47.87],[-64.7,47.78],[-64.62,47.79],[-64.7,47.75],[-64.61,47.74],[-64.53,47.83],[-64.51,47.85]]],[[[-60.4,46.36],[-60.39,46.37],[-60.39,46.37],[-60.4,46.37],[-60.4,46.36],[-60.4,46.36]]],[[[-60.37,46.39],[-60.37,46.39],[-60.37,46.39],[-60.39,46.38],[-60.38,46.38],[-60.37,46.39]]],[[[-64.48,47.99],[-64.55,48.01],[-64.6,47.9],[-64.5,47.91],[-64.48,47.98],[-64.48,47.99]]],[[[-60.34,46.68],[-60.34,46.69],[-60.34,46.69],[-60.35,46.68],[-60.35,46.68],[-60.34,46.68]]],[[[-61.93,47.29],[-61.93,47.29],[-61.93,47.3],[-61.93,47.3],[-61.93,47.3],[-61.93,47.31],[-61.93,47.32],[-61.93,47.32],[-61.93,47.32],[-61.93,47.33],[-61.93,47.33],[-61.93,47.33],[-61.94,47.33],[-61.94,47.32],[-61.94,47.32],[-61.94,47.32],[-61.94,47.31],[-61.94,47.31],[-61.94,47.3],[-61.94,47.3],[-61.94,47.3],[-61.94,47.29],[-61.93,47.29]]],[[[-61.7,47.27],[-61.7,47.27],[-61.7,47.27],[-61.69,47.27],[-61.69,47.27],[-61.68,47.28],[-61.68,47.28],[-61.68,47.28],[-61.69,47.29],[-61.69,47.29],[-61.7,47.29],[-61.7,47.28],[-61.71,47.28],[-61.71,47.29],[-61.72,47.28],[-61.72,47.28],[-61.72,47.28],[-61.72,47.28],[-61.71,47.27],[-61.71,47.27],[-61.7,47.27]]],[[[-60.39,47.03],[-60.62,47.03],[-60.91,46.77],[-61.01,46.6],[-61.01,46.65],[-61.06,46.62],[-61.03,46.57],[-61.11,46.44],[-61.07,46.39],[-61.13,46.44],[-61.47,46.14],[-61.38,46.06],[-61.48,46.09],[-61.55,46.04],[-61.47,45.72],[-61.33,45.56],[-60.91,45.65],[-60.68,45.57],[-60.35,45.67],[-60.38,45.73],[-60.27,45.7],[-60.08,45.8],[-60.17,45.84],[-60.15,45.88],[-59.79,45.95],[-59.84,46.02],[-59.97,46.02],[-59.86,46.07],[-59.8,46.13],[-59.91,46.11],[-59.81,46.18],[-59.95,46.16],[-59.95,46.22],[-60.08,46.21],[-60.03,46.24],[-60.13,46.27],[-60.22,46.21],[-60.22,46.11],[-60.23,46.19],[-60.31,46.17],[-60.21,46.26],[-60.36,46.33],[-60.67,46.07],[-60.41,46.23],[-60.29,46.25],[-60.32,46.21],[-60.8,45.95],[-60.7,45.9],[-60.36,46.03],[-60.74,45.8],[-60.74,45.69],[-60.88,45.66],[-60.8,45.71],[-60.9,45.77],[-61.17,45.71],[-61.11,45.79],[-60.93,45.84],[-60.99,45.88],[-60.91,45.87],[-61.1,45.86],[-61.03,45.89],[-61.09,45.91],[-60.82,45.94],[-60.74,46.07],[-60.93,46.04],[-60.89,46.03],[-60.99,45.95],[-61.13,45.97],[-60.99,45.99],[-60.87,46.1],[-60.64,46.12],[-60.42,46.29],[-60.45,46.35],[-60.62,46.21],[-60.62,46.3],[-60.54,46.3],[-60.35,46.61],[-60.43,46.63],[-60.35,46.65],[-60.41,46.67],[-60.34,46.7],[-60.3,46.85],[-60.52,46.9],[-60.39,47.02],[-60.39,47.03]]],[[[-61.79,47.39],[-61.59,47.56],[-61.83,47.41],[-61.79,47.39],[-61.79,47.39]]],[[[-61.41,47.61],[-61.59,47.62],[-61.94,47.41],[-62.02,47.22],[-61.81,47.23],[-61.78,47.27],[-61.98,47.26],[-61.96,47.33],[-61.56,47.62],[-61.45,47.63],[-61.56,47.56],[-61.52,47.54],[-61.41,47.61],[-61.41,47.61]]],[[[-60.16,47.18],[-60.14,47.23],[-60.16,47.18],[-60.16,47.18]]],[[[-61.5,47.79],[-61.41,47.81],[-61.5,47.78],[-61.5,47.79]]],[[[-61.14,47.84],[-61.14,47.84],[-61.14,47.85],[-61.15,47.85],[-61.15,47.85],[-61.16,47.84],[-61.15,47.84],[-61.15,47.84],[-61.15,47.84],[-61.14,47.84]]],[[[-62.69,49.65],[-63.23,49.81],[-64.12,49.95],[-64.52,49.87],[-64.38,49.78],[-64.39,49.83],[-63.82,49.64],[-63.64,49.53],[-63.58,49.38],[-62.99,49.2],[-62.28,49.07],[-61.83,49.06],[-61.67,49.13],[-61.89,49.35],[-62.19,49.4],[-62.68,49.65],[-62.69,49.65]]]]},"properties":{"ENAME":"Peace and Friendship Treaties (1725-1779)"}}],"metadata":{"title":"Historic treaties","publisher":"Crown-Indigenous Relations and Northern Affairs Canada","source":"https://open.canada.ca/data/en/dataset/f281b150-0645-48e4-9c30-01f55f93f78e","service":"https://geo.sac-isc.gc.ca/geomatics/rest/services/Donnees_Ouvertes-Open_Data/Historic_Treaty_E/MapServer/0","accessed":"2026-08-28","note":"Coordinates rounded to two decimals and linework generalized to 0.04 degrees for web display. Boundaries are usually not surveyed and are not legal descriptions."}}